
[
  {"id":1,"Name":"Cookie","StreetAddress":"91 Summit Crossing","Zip":29592,"EmailAddress":"cjales0@mediafire.com","PhoneNumber":"579-442-2302"},
  {"id":2,"Name":"Ted","StreetAddress":"86713 Melody Place","Zip":40263,"EmailAddress":"tdighton1@oakley.com","PhoneNumber":"856-289-1934"},
  {"id":3,"Name":"Danielle","StreetAddress":"01766 South Junction","Zip":20974,"EmailAddress":"dbaus2@paginegialle.it","PhoneNumber":"351-244-3710"},
  {"id":4,"Name":"Egan","StreetAddress":"72016 Lakewood Gardens Terrace","Zip":40606,"EmailAddress":"ejori3@census.gov","PhoneNumber":"904-516-3084"},
  {"id":5,"Name":"Violet","StreetAddress":"6730 Little Fleur Place","Zip":37028,"EmailAddress":"vmcness4@wikimedia.org","PhoneNumber":"962-750-4233"},
  {"id":6,"Name":"Ginni","StreetAddress":"66561 Dapin Crossing","Zip":35495,"EmailAddress":"ghuguet5@shop-pro.jp","PhoneNumber":"437-167-2875"},
  {"id":7,"Name":"Albertine","StreetAddress":"17874 Fuller Circle","Zip":19058,"EmailAddress":"aleslie6@intel.com","PhoneNumber":"175-844-8479"},
  {"id":8,"Name":"Nappy","StreetAddress":"544 Longview Park","Zip":22946,"EmailAddress":"nranscome7@privacy.gov.au","PhoneNumber":"894-742-6408"},
  {"id":9,"Name":"Farr","StreetAddress":"71 Express Park","Zip":41695,"EmailAddress":"fshemelt8@msu.edu","PhoneNumber":"923-777-7123"},
  {"id":10,"Name":"Skell","StreetAddress":"9647 Hermina Circle","Zip":21266,"EmailAddress":"sstockney9@google.ru","PhoneNumber":"512-893-7287"},
  {"id":11,"Name":"Shurlock","StreetAddress":"4 Talisman Crossing","Zip":32771,"EmailAddress":"sheinricha@shutterfly.com","PhoneNumber":"463-736-2661"},
  {"id":12,"Name":"Buiron","StreetAddress":"54924 Starling Avenue","Zip":40351,"EmailAddress":"bkellieb@java.com","PhoneNumber":"875-990-9040"},
  {"id":13,"Name":"Sibelle","StreetAddress":"70585 Oneill Plaza","Zip":41171,"EmailAddress":"stschurschc@technorati.com","PhoneNumber":"405-308-1908"},
  {"id":14,"Name":"Susan","StreetAddress":"69 Mendota Alley","Zip":46228,"EmailAddress":"sadshadd@amazon.co.uk","PhoneNumber":"935-302-0871"},
  {"id":15,"Name":"Antin","StreetAddress":"61430 Hollow Ridge Terrace","Zip":11271,"EmailAddress":"apardie@posterous.com","PhoneNumber":"936-763-9198"},
  {"id":16,"Name":"Albert","StreetAddress":"556 Kedzie Crossing","Zip":35627,"EmailAddress":"aseabrightf@cafepress.com","PhoneNumber":"916-379-0732"},
  {"id":17,"Name":"Hortensia","StreetAddress":"1237 Reinke Hill","Zip":19207,"EmailAddress":"hmapleg@blinklist.com","PhoneNumber":"111-453-9691"},
  {"id":18,"Name":"Clari","StreetAddress":"9 Grayhawk Circle","Zip":44499,"EmailAddress":"cwiggansh@posterous.com","PhoneNumber":"411-247-7923"},
  {"id":19,"Name":"Filberte","StreetAddress":"91273 Ryan Drive","Zip":30613,"EmailAddress":"fplumptrei@surveymonkey.com","PhoneNumber":"162-400-6130"},
  {"id":20,"Name":"Maren","StreetAddress":"4727 Oakridge Hill","Zip":39177,"EmailAddress":"mselfj@weather.com","PhoneNumber":"496-376-7286"},
  {"id":21,"Name":"Lizbeth","StreetAddress":"12 Graceland Parkway","Zip":39491,"EmailAddress":"lfarahark@ucsd.edu","PhoneNumber":"200-871-4005"},
  {"id":22,"Name":"Goldarina","StreetAddress":"97126 Warrior Junction","Zip":25916,"EmailAddress":"gridell@squidoo.com","PhoneNumber":"938-340-0955"},
  {"id":23,"Name":"Leola","StreetAddress":"169 Hansons Parkway","Zip":25318,"EmailAddress":"lkeyesm@marriott.com","PhoneNumber":"811-718-2301"},
  {"id":24,"Name":"Ingmar","StreetAddress":"963 Sycamore Point","Zip":39922,"EmailAddress":"ibarltropn@storify.com","PhoneNumber":"562-678-7603"},
  {"id":25,"Name":"Mommy","StreetAddress":"962 Jenifer Plaza","Zip":25667,"EmailAddress":"mphillpso@hao123.com","PhoneNumber":"724-534-2778"},
  {"id":26,"Name":"Arden","StreetAddress":"529 Wayridge Junction","Zip":46146,"EmailAddress":"ajoubertp@surveymonkey.com","PhoneNumber":"312-668-6679"},
  {"id":27,"Name":"Debi","StreetAddress":"95340 Grasskamp Point","Zip":10421,"EmailAddress":"dtysackq@utexas.edu","PhoneNumber":"423-787-9525"},
  {"id":28,"Name":"Mia","StreetAddress":"0 Fremont Trail","Zip":27337,"EmailAddress":"mbrasteadr@shinystat.com","PhoneNumber":"103-446-4106"},
  {"id":29,"Name":"Vince","StreetAddress":"33 Moose Parkway","Zip":32109,"EmailAddress":"vgodferys@acquirethisname.com","PhoneNumber":"448-664-9197"},
  {"id":30,"Name":"Birk","StreetAddress":"036 Park Meadow Street","Zip":26047,"EmailAddress":"bfonest@typepad.com","PhoneNumber":"628-344-5639"},
  {"id":31,"Name":"Ilyse","StreetAddress":"4393 Fallview Terrace","Zip":22886,"EmailAddress":"ifallowfieldu@furl.net","PhoneNumber":"563-178-2086"},
  {"id":32,"Name":"Ludvig","StreetAddress":"7 Service Pass","Zip":16917,"EmailAddress":"llumsdalev@intel.com","PhoneNumber":"623-525-5428"},
  {"id":33,"Name":"Meghann","StreetAddress":"6 Garrison Crossing","Zip":10851,"EmailAddress":"mlevingtonw@prnewswire.com","PhoneNumber":"646-476-9116"},
  {"id":34,"Name":"Fredrick","StreetAddress":"6862 Steensland Alley","Zip":35590,"EmailAddress":"fmarkelx@photobucket.com","PhoneNumber":"299-252-0139"},
  {"id":35,"Name":"Horatia","StreetAddress":"7 Helena Plaza","Zip":33288,"EmailAddress":"hsilsony@goo.gl","PhoneNumber":"518-437-1182"},
  {"id":36,"Name":"Ailee","StreetAddress":"479 Farragut Plaza","Zip":36876,"EmailAddress":"athunnerclefz@webnode.com","PhoneNumber":"749-454-6233"},
  {"id":37,"Name":"Basia","StreetAddress":"0 Rowland Hill","Zip":39535,"EmailAddress":"bponsford10@feedburner.com","PhoneNumber":"420-105-6451"},
  {"id":38,"Name":"Abie","StreetAddress":"8421 Pawling Drive","Zip":28893,"EmailAddress":"aitzchaky11@nytimes.com","PhoneNumber":"475-673-2111"},
  {"id":39,"Name":"Danie","StreetAddress":"22915 La Follette Park","Zip":42643,"EmailAddress":"dbirk12@prweb.com","PhoneNumber":"257-569-7621"},
  {"id":40,"Name":"Fairleigh","StreetAddress":"17 Valley Edge Hill","Zip":45966,"EmailAddress":"fnapolione13@boston.com","PhoneNumber":"404-721-2692"},
  {"id":41,"Name":"Templeton","StreetAddress":"8 Roxbury Center","Zip":44475,"EmailAddress":"thanvey14@de.vu","PhoneNumber":"247-754-0962"},
  {"id":42,"Name":"Chauncey","StreetAddress":"883 Hansons Place","Zip":30051,"EmailAddress":"cbrayshay15@wp.com","PhoneNumber":"845-199-4946"},
  {"id":43,"Name":"Dimitry","StreetAddress":"89989 Merrick Terrace","Zip":25518,"EmailAddress":"dmorrel16@goo.gl","PhoneNumber":"106-770-0958"},
  {"id":44,"Name":"Georgette","StreetAddress":"874 Bobwhite Street","Zip":44094,"EmailAddress":"gfossey17@deviantart.com","PhoneNumber":"236-674-4260"},
  {"id":45,"Name":"Carol","StreetAddress":"0 Norway Maple Alley","Zip":24089,"EmailAddress":"cwelling18@sina.com.cn","PhoneNumber":"441-714-0745"},
  {"id":46,"Name":"Eda","StreetAddress":"081 Trailsway Drive","Zip":37339,"EmailAddress":"eboskell19@constantcontact.com","PhoneNumber":"803-147-1107"},
  {"id":47,"Name":"Shelli","StreetAddress":"7732 Browning Avenue","Zip":16238,"EmailAddress":"sianniello1a@about.me","PhoneNumber":"725-621-7174"},
  {"id":48,"Name":"Arvie","StreetAddress":"01969 Dayton Parkway","Zip":30526,"EmailAddress":"aozanne1b@rediff.com","PhoneNumber":"373-854-9724"},
  {"id":49,"Name":"Emelyne","StreetAddress":"05 1st Lane","Zip":46444,"EmailAddress":"earrow1c@umn.edu","PhoneNumber":"459-523-7127"},
  {"id":50,"Name":"Andie","StreetAddress":"164 Paget Lane","Zip":36157,"EmailAddress":"adeakins1d@tinypic.com","PhoneNumber":"464-222-7696"},
  {"id":51,"Name":"Livvy","StreetAddress":"35474 Memorial Court","Zip":39596,"EmailAddress":"lkusick1e@fema.gov","PhoneNumber":"401-221-5326"},
  {"id":52,"Name":"Mattheus","StreetAddress":"02649 Prentice Terrace","Zip":28412,"EmailAddress":"mchesswas1f@chronoengine.com","PhoneNumber":"172-317-4993"},
  {"id":53,"Name":"Carlee","StreetAddress":"0 Briar Crest Court","Zip":17811,"EmailAddress":"cmcgoon1g@bravesites.com","PhoneNumber":"164-860-1570"},
  {"id":54,"Name":"Olin","StreetAddress":"2704 Eastlawn Plaza","Zip":32384,"EmailAddress":"ovideneev1h@about.me","PhoneNumber":"649-730-4500"},
  {"id":55,"Name":"Shelba","StreetAddress":"580 Canary Terrace","Zip":18017,"EmailAddress":"sbeggan1i@biblegateway.com","PhoneNumber":"217-610-0478"},
  {"id":56,"Name":"Tomkin","StreetAddress":"38073 Washington Circle","Zip":11627,"EmailAddress":"tdownie1j@indiegogo.com","PhoneNumber":"336-239-6609"},
  {"id":57,"Name":"Judd","StreetAddress":"87997 Goodland Road","Zip":16100,"EmailAddress":"jbradane1k@paginegialle.it","PhoneNumber":"200-571-0651"},
  {"id":58,"Name":"Bryce","StreetAddress":"1528 Dawn Pass","Zip":29334,"EmailAddress":"bbarehead1l@qq.com","PhoneNumber":"788-712-3083"},
  {"id":59,"Name":"Golda","StreetAddress":"962 Forest Dale Park","Zip":48731,"EmailAddress":"gespinal1m@imgur.com","PhoneNumber":"504-286-8054"},
  {"id":60,"Name":"Berky","StreetAddress":"70560 Crest Line Court","Zip":48301,"EmailAddress":"bgrinaway1n@google.pl","PhoneNumber":"204-233-9955"},
  {"id":61,"Name":"Geordie","StreetAddress":"67493 Pierstorff Alley","Zip":38764,"EmailAddress":"gcarine1o@alibaba.com","PhoneNumber":"825-717-5102"},
  {"id":62,"Name":"Aubry","StreetAddress":"30 Menomonie Plaza","Zip":28489,"EmailAddress":"adavey1p@bigcartel.com","PhoneNumber":"313-856-6437"},
  {"id":63,"Name":"Osborn","StreetAddress":"7331 Hanson Alley","Zip":35479,"EmailAddress":"odanielovitch1q@omniture.com","PhoneNumber":"269-291-3195"},
  {"id":64,"Name":"Huntlee","StreetAddress":"8429 Londonderry Drive","Zip":36524,"EmailAddress":"hlewry1r@free.fr","PhoneNumber":"978-719-2427"},
  {"id":65,"Name":"Bren","StreetAddress":"95 Portage Junction","Zip":37824,"EmailAddress":"bdaniello1s@usa.gov","PhoneNumber":"781-452-7040"},
  {"id":66,"Name":"Desirae","StreetAddress":"4767 Browning Hill","Zip":47444,"EmailAddress":"dmacgarvey1t@merriam-webster.com","PhoneNumber":"904-721-1520"},
  {"id":67,"Name":"Gwenora","StreetAddress":"672 Glacier Hill Hill","Zip":38522,"EmailAddress":"grapkins1u@arstechnica.com","PhoneNumber":"324-384-2815"},
  {"id":68,"Name":"Minette","StreetAddress":"0828 Mifflin Alley","Zip":41804,"EmailAddress":"mosorio1v@utexas.edu","PhoneNumber":"622-542-2090"},
  {"id":69,"Name":"Christel","StreetAddress":"4 Brickson Park Crossing","Zip":15316,"EmailAddress":"cfalk1w@topsy.com","PhoneNumber":"614-545-6327"},
  {"id":70,"Name":"Rob","StreetAddress":"7460 Sloan Parkway","Zip":14221,"EmailAddress":"rcraigmile1x@ibm.com","PhoneNumber":"846-859-7762"},
  {"id":71,"Name":"Ricky","StreetAddress":"3219 Springs Road","Zip":21398,"EmailAddress":"rstefanovic1y@reuters.com","PhoneNumber":"404-476-1408"},
  {"id":72,"Name":"Spence","StreetAddress":"8 Carioca Terrace","Zip":12577,"EmailAddress":"sspellecy1z@trellian.com","PhoneNumber":"981-409-1104"},
  {"id":73,"Name":"Jasen","StreetAddress":"0690 Mallard Parkway","Zip":16743,"EmailAddress":"jcouroy20@1688.com","PhoneNumber":"269-293-1374"},
  {"id":74,"Name":"Quintana","StreetAddress":"74554 Nelson Street","Zip":31957,"EmailAddress":"qimbrey21@xinhuanet.com","PhoneNumber":"472-682-2069"},
  {"id":75,"Name":"Osborn","StreetAddress":"54 Hansons Road","Zip":20697,"EmailAddress":"opyvis22@google.it","PhoneNumber":"215-955-1490"},
  {"id":76,"Name":"Carine","StreetAddress":"8 Roth Street","Zip":47779,"EmailAddress":"crawsen23@mapquest.com","PhoneNumber":"556-766-0340"},
  {"id":77,"Name":"Marillin","StreetAddress":"42 Butternut Junction","Zip":33807,"EmailAddress":"mlillford24@imageshack.us","PhoneNumber":"527-415-6001"},
  {"id":78,"Name":"Darsey","StreetAddress":"17792 Rockefeller Parkway","Zip":48044,"EmailAddress":"dvaan25@state.tx.us","PhoneNumber":"822-967-0642"},
  {"id":79,"Name":"Ernst","StreetAddress":"02463 Killdeer Crossing","Zip":37003,"EmailAddress":"egilkes26@elegantthemes.com","PhoneNumber":"957-132-5516"},
  {"id":80,"Name":"Thaxter","StreetAddress":"41 Fallview Avenue","Zip":15389,"EmailAddress":"twilbor27@accuweather.com","PhoneNumber":"185-269-1050"},
  {"id":81,"Name":"Mar","StreetAddress":"077 Park Meadow Alley","Zip":48789,"EmailAddress":"mschutze28@paypal.com","PhoneNumber":"646-286-8970"},
  {"id":82,"Name":"Blake","StreetAddress":"8 Petterle Trail","Zip":20396,"EmailAddress":"bsjollema29@cnn.com","PhoneNumber":"832-261-7718"},
  {"id":83,"Name":"Reilly","StreetAddress":"57961 Birchwood Pass","Zip":17220,"EmailAddress":"rbattabee2a@tumblr.com","PhoneNumber":"615-904-1094"},
  {"id":84,"Name":"Ricki","StreetAddress":"13211 Clyde Gallagher Hill","Zip":15519,"EmailAddress":"rgoddertsf2b@yandex.ru","PhoneNumber":"260-724-4903"},
  {"id":85,"Name":"Ivor","StreetAddress":"93 Nova Crossing","Zip":23888,"EmailAddress":"ijouaneton2c@homestead.com","PhoneNumber":"716-790-8518"},
  {"id":86,"Name":"Gisella","StreetAddress":"49 Lien Crossing","Zip":18970,"EmailAddress":"gwolseley2d@smh.com.au","PhoneNumber":"242-123-3579"},
  {"id":87,"Name":"Marven","StreetAddress":"36268 Hansons Parkway","Zip":39804,"EmailAddress":"mlooby2e@businesswire.com","PhoneNumber":"941-775-3812"},
  {"id":88,"Name":"Ingunna","StreetAddress":"36115 Holy Cross Drive","Zip":11249,"EmailAddress":"ipulsford2f@list-manage.com","PhoneNumber":"727-489-1828"},
  {"id":89,"Name":"Clim","StreetAddress":"02 Sutherland Crossing","Zip":48683,"EmailAddress":"cgreeves2g@histats.com","PhoneNumber":"736-129-8977"},
  {"id":90,"Name":"Amara","StreetAddress":"90378 Milwaukee Place","Zip":35050,"EmailAddress":"aconneely2h@is.gd","PhoneNumber":"514-438-2790"},
  {"id":91,"Name":"Hube","StreetAddress":"91 Jana Road","Zip":31239,"EmailAddress":"htambling2i@histats.com","PhoneNumber":"134-525-7849"},
  {"id":92,"Name":"Perle","StreetAddress":"4880 Raven Junction","Zip":36859,"EmailAddress":"poscully2j@w3.org","PhoneNumber":"433-830-7241"},
  {"id":93,"Name":"Merle","StreetAddress":"08151 Hollow Ridge Junction","Zip":31648,"EmailAddress":"msurridge2k@admin.ch","PhoneNumber":"540-644-8901"},
  {"id":94,"Name":"Vern","StreetAddress":"59487 Sutteridge Terrace","Zip":13309,"EmailAddress":"vsheryne2l@dropbox.com","PhoneNumber":"710-499-9795"},
  {"id":95,"Name":"Lizzy","StreetAddress":"81985 Jenna Parkway","Zip":17948,"EmailAddress":"lkielt2m@webeden.co.uk","PhoneNumber":"763-576-6123"},
  {"id":96,"Name":"Cindra","StreetAddress":"971 Katie Alley","Zip":22176,"EmailAddress":"chaddy2n@msu.edu","PhoneNumber":"143-750-0777"},
  {"id":97,"Name":"Willie","StreetAddress":"31 Corry Pass","Zip":33568,"EmailAddress":"wjoppich2o@noaa.gov","PhoneNumber":"992-162-1954"},
  {"id":98,"Name":"Peggie","StreetAddress":"83841 Sherman Terrace","Zip":20097,"EmailAddress":"pjillard2p@apache.org","PhoneNumber":"398-655-1239"},
  {"id":99,"Name":"Evy","StreetAddress":"4 Melvin Court","Zip":25356,"EmailAddress":"espaight2q@walmart.com","PhoneNumber":"188-422-3059"},
  {"id":100,"Name":"Yvette","StreetAddress":"46425 Forest Dale Terrace","Zip":21362,"EmailAddress":"ybettanay2r@archive.org","PhoneNumber":"513-467-9838"},
  {"id":101,"Name":"Tobye","StreetAddress":"5160 Rutledge Avenue","Zip":46258,"EmailAddress":"tsugge2s@blogs.com","PhoneNumber":"751-536-8248"},
  {"id":102,"Name":"Avigdor","StreetAddress":"70841 Sugar Way","Zip":32682,"EmailAddress":"amccarter2t@samsung.com","PhoneNumber":"157-510-4889"},
  {"id":103,"Name":"Edgar","StreetAddress":"969 Ridgeview Lane","Zip":12230,"EmailAddress":"eburnup2u@reddit.com","PhoneNumber":"201-930-5754"},
  {"id":104,"Name":"Bill","StreetAddress":"10 Arrowood Hill","Zip":38232,"EmailAddress":"bcharleston2v@spotify.com","PhoneNumber":"395-397-2868"},
  {"id":105,"Name":"Kathryn","StreetAddress":"7298 Kings Plaza","Zip":35437,"EmailAddress":"kmcguggy2w@free.fr","PhoneNumber":"938-795-7163"},
  {"id":106,"Name":"Giacopo","StreetAddress":"7402 Sommers Road","Zip":13527,"EmailAddress":"gcohr2x@shareasale.com","PhoneNumber":"784-794-0695"},
  {"id":107,"Name":"Vic","StreetAddress":"0547 Heffernan Lane","Zip":19114,"EmailAddress":"vgreim2y@imdb.com","PhoneNumber":"376-701-5740"},
  {"id":108,"Name":"Sophronia","StreetAddress":"276 Continental Street","Zip":25796,"EmailAddress":"swanne2z@senate.gov","PhoneNumber":"407-596-2179"},
  {"id":109,"Name":"Whitney","StreetAddress":"04506 Grim Trail","Zip":18249,"EmailAddress":"wcarus30@stumbleupon.com","PhoneNumber":"746-171-7656"},
  {"id":110,"Name":"Glenden","StreetAddress":"64966 Westport Court","Zip":32260,"EmailAddress":"gwyllcock31@hugedomains.com","PhoneNumber":"650-168-5042"},
  {"id":111,"Name":"Annice","StreetAddress":"97498 Maryland Park","Zip":16192,"EmailAddress":"ahelks32@ezinearticles.com","PhoneNumber":"879-731-0870"},
  {"id":112,"Name":"Corette","StreetAddress":"38428 Duke Park","Zip":31872,"EmailAddress":"cmorley33@oakley.com","PhoneNumber":"608-297-3292"},
  {"id":113,"Name":"Benedikt","StreetAddress":"252 Forest Dale Road","Zip":31940,"EmailAddress":"blasty34@ihg.com","PhoneNumber":"522-783-6147"},
  {"id":114,"Name":"Roshelle","StreetAddress":"44658 Cody Terrace","Zip":27537,"EmailAddress":"rhaldin35@meetup.com","PhoneNumber":"342-645-0765"},
  {"id":115,"Name":"Winnah","StreetAddress":"336 Lindbergh Circle","Zip":33407,"EmailAddress":"wbussey36@wunderground.com","PhoneNumber":"583-124-7121"},
  {"id":116,"Name":"Kerry","StreetAddress":"3874 Fieldstone Parkway","Zip":15127,"EmailAddress":"kliepins37@indiegogo.com","PhoneNumber":"568-245-1596"},
  {"id":117,"Name":"My","StreetAddress":"82 Waubesa Terrace","Zip":34735,"EmailAddress":"mhayers38@narod.ru","PhoneNumber":"980-730-7666"},
  {"id":118,"Name":"Cornelius","StreetAddress":"94426 Namekagon Alley","Zip":46704,"EmailAddress":"cdebeauchemp39@mashable.com","PhoneNumber":"417-265-6497"},
  {"id":119,"Name":"Caralie","StreetAddress":"79 Myrtle Road","Zip":30318,"EmailAddress":"cgerlack3a@yandex.ru","PhoneNumber":"909-171-5708"},
  {"id":120,"Name":"Carney","StreetAddress":"9814 Hollow Ridge Street","Zip":12813,"EmailAddress":"cburger3b@cisco.com","PhoneNumber":"244-880-6640"},
  {"id":121,"Name":"Lory","StreetAddress":"4948 Alpine Hill","Zip":40879,"EmailAddress":"lrosenthaler3c@feedburner.com","PhoneNumber":"822-203-9273"},
  {"id":122,"Name":"Letizia","StreetAddress":"1884 Gulseth Terrace","Zip":37041,"EmailAddress":"lnovelli3d@whitehouse.gov","PhoneNumber":"281-376-9516"},
  {"id":123,"Name":"Cash","StreetAddress":"5874 Esch Hill","Zip":16921,"EmailAddress":"camps3e@go.com","PhoneNumber":"518-171-4940"},
  {"id":124,"Name":"Nils","StreetAddress":"894 Muir Avenue","Zip":11183,"EmailAddress":"ncleife3f@scientificamerican.com","PhoneNumber":"301-545-4608"},
  {"id":125,"Name":"Broddie","StreetAddress":"72 Coolidge Drive","Zip":46818,"EmailAddress":"bskirling3g@cloudflare.com","PhoneNumber":"728-681-1195"},
  {"id":126,"Name":"Miguel","StreetAddress":"14397 Heath Trail","Zip":26011,"EmailAddress":"mkalinsky3h@blog.com","PhoneNumber":"208-376-5997"},
  {"id":127,"Name":"Salomi","StreetAddress":"4 Garrison Crossing","Zip":29862,"EmailAddress":"swringe3i@craigslist.org","PhoneNumber":"328-733-3436"},
  {"id":128,"Name":"Currie","StreetAddress":"748 John Wall Trail","Zip":38308,"EmailAddress":"cstallworthy3j@ow.ly","PhoneNumber":"940-743-2205"},
  {"id":129,"Name":"Thacher","StreetAddress":"28 Weeping Birch Crossing","Zip":16459,"EmailAddress":"tbillyeald3k@mashable.com","PhoneNumber":"202-599-0386"},
  {"id":130,"Name":"Garek","StreetAddress":"85 Merry Terrace","Zip":44875,"EmailAddress":"gjosephy3l@cbc.ca","PhoneNumber":"150-993-3141"},
  {"id":131,"Name":"Francesco","StreetAddress":"6402 Rowland Hill","Zip":20586,"EmailAddress":"fbradie3m@buzzfeed.com","PhoneNumber":"776-573-1933"},
  {"id":132,"Name":"Odelia","StreetAddress":"82221 Fallview Trail","Zip":14374,"EmailAddress":"ogilffilland3n@toplist.cz","PhoneNumber":"883-347-7278"},
  {"id":133,"Name":"Magdalene","StreetAddress":"3 Northfield Trail","Zip":23382,"EmailAddress":"mshawley3o@cisco.com","PhoneNumber":"687-788-4952"},
  {"id":134,"Name":"Nikola","StreetAddress":"0437 Ridgeview Lane","Zip":23218,"EmailAddress":"nilbert3p@cornell.edu","PhoneNumber":"761-465-5147"},
  {"id":135,"Name":"Carolee","StreetAddress":"376 Huxley Junction","Zip":42687,"EmailAddress":"cmacguffog3q@tamu.edu","PhoneNumber":"402-915-6626"},
  {"id":136,"Name":"Gabbey","StreetAddress":"82771 Stuart Place","Zip":18348,"EmailAddress":"gmatuszinski3r@printfriendly.com","PhoneNumber":"702-248-8705"},
  {"id":137,"Name":"Inez","StreetAddress":"3809 Muir Parkway","Zip":20931,"EmailAddress":"itolwood3s@auda.org.au","PhoneNumber":"669-469-3690"},
  {"id":138,"Name":"Jeffy","StreetAddress":"5368 Anthes Lane","Zip":35618,"EmailAddress":"jdysart3t@opensource.org","PhoneNumber":"763-182-2277"},
  {"id":139,"Name":"Hamlin","StreetAddress":"29 Spaight Terrace","Zip":35871,"EmailAddress":"hbriskey3u@illinois.edu","PhoneNumber":"599-846-9387"},
  {"id":140,"Name":"Maryrose","StreetAddress":"491 Old Shore Terrace","Zip":33811,"EmailAddress":"mblitz3v@abc.net.au","PhoneNumber":"359-113-6294"},
  {"id":141,"Name":"Tonnie","StreetAddress":"2923 Calypso Parkway","Zip":49375,"EmailAddress":"tjeandel3w@usda.gov","PhoneNumber":"402-744-4511"},
  {"id":142,"Name":"Sandie","StreetAddress":"49 Surrey Park","Zip":32803,"EmailAddress":"scowthart3x@hostgator.com","PhoneNumber":"382-303-1060"},
  {"id":143,"Name":"Leeland","StreetAddress":"1 Farragut Avenue","Zip":41022,"EmailAddress":"lvance3y@sphinn.com","PhoneNumber":"713-301-3793"},
  {"id":144,"Name":"Katinka","StreetAddress":"72125 Moulton Junction","Zip":19436,"EmailAddress":"kgoshawke3z@census.gov","PhoneNumber":"188-162-7556"},
  {"id":145,"Name":"Elias","StreetAddress":"1 Thompson Hill","Zip":20964,"EmailAddress":"ewegener40@twitter.com","PhoneNumber":"563-254-0643"},
  {"id":146,"Name":"Doralynn","StreetAddress":"0585 Laurel Point","Zip":19358,"EmailAddress":"dheinel41@twitter.com","PhoneNumber":"583-924-4275"},
  {"id":147,"Name":"Roscoe","StreetAddress":"291 Meadow Ridge Hill","Zip":19842,"EmailAddress":"rflavelle42@earthlink.net","PhoneNumber":"273-948-1012"},
  {"id":148,"Name":"Edgar","StreetAddress":"47 Pierstorff Street","Zip":26050,"EmailAddress":"etiron43@umich.edu","PhoneNumber":"247-562-8329"},
  {"id":149,"Name":"Bunni","StreetAddress":"60 Florence Park","Zip":43850,"EmailAddress":"bclimance44@usnews.com","PhoneNumber":"583-408-3640"},
  {"id":150,"Name":"Sula","StreetAddress":"365 7th Road","Zip":49653,"EmailAddress":"slodge45@yellowbook.com","PhoneNumber":"562-169-5417"},
  {"id":151,"Name":"Obidiah","StreetAddress":"706 Karstens Drive","Zip":24993,"EmailAddress":"opovey46@whitehouse.gov","PhoneNumber":"314-827-8901"},
  {"id":152,"Name":"Alexei","StreetAddress":"545 Toban Street","Zip":12038,"EmailAddress":"abatalini47@nymag.com","PhoneNumber":"642-744-5403"},
  {"id":153,"Name":"Shelly","StreetAddress":"3214 Eagle Crest Junction","Zip":18579,"EmailAddress":"scasotti48@123-reg.co.uk","PhoneNumber":"411-859-5403"},
  {"id":154,"Name":"Adamo","StreetAddress":"6 Wayridge Plaza","Zip":25352,"EmailAddress":"agilchrist49@globo.com","PhoneNumber":"882-271-0167"},
  {"id":155,"Name":"Vachel","StreetAddress":"2623 Sachs Circle","Zip":44458,"EmailAddress":"vjeffels4a@cisco.com","PhoneNumber":"481-390-8802"},
  {"id":156,"Name":"Vincents","StreetAddress":"4 Sloan Plaza","Zip":12849,"EmailAddress":"vkarby4b@weebly.com","PhoneNumber":"604-291-8697"},
  {"id":157,"Name":"Ruben","StreetAddress":"8 Rigney Point","Zip":29865,"EmailAddress":"rtracy4c@ocn.ne.jp","PhoneNumber":"841-417-5822"},
  {"id":158,"Name":"Winifield","StreetAddress":"3 Petterle Court","Zip":38703,"EmailAddress":"wstrick4d@patch.com","PhoneNumber":"812-925-0967"},
  {"id":159,"Name":"Malchy","StreetAddress":"88 Prairie Rose Hill","Zip":10279,"EmailAddress":"mhaistwell4e@sakura.ne.jp","PhoneNumber":"617-987-5331"},
  {"id":160,"Name":"Emily","StreetAddress":"9391 Loeprich Trail","Zip":41225,"EmailAddress":"erowlatt4f@zimbio.com","PhoneNumber":"169-299-7440"},
  {"id":161,"Name":"Barclay","StreetAddress":"554 Continental Park","Zip":43938,"EmailAddress":"bkorfmann4g@amazon.de","PhoneNumber":"770-635-4283"},
  {"id":162,"Name":"Dawn","StreetAddress":"881 Dakota Road","Zip":15253,"EmailAddress":"dladson4h@fastcompany.com","PhoneNumber":"577-565-6480"},
  {"id":163,"Name":"Ashley","StreetAddress":"24981 Schiller Hill","Zip":45814,"EmailAddress":"agiacomo4i@earthlink.net","PhoneNumber":"842-499-3808"},
  {"id":164,"Name":"Maxine","StreetAddress":"51080 Merchant Court","Zip":46211,"EmailAddress":"mgapper4j@deliciousdays.com","PhoneNumber":"226-362-6965"},
  {"id":165,"Name":"Pooh","StreetAddress":"3 South Terrace","Zip":34406,"EmailAddress":"pweed4k@shinystat.com","PhoneNumber":"487-742-0452"},
  {"id":166,"Name":"Octavia","StreetAddress":"0527 Erie Center","Zip":33458,"EmailAddress":"osperrett4l@cafepress.com","PhoneNumber":"384-858-3887"},
  {"id":167,"Name":"Isis","StreetAddress":"8568 Memorial Drive","Zip":34606,"EmailAddress":"idenyer4m@businessinsider.com","PhoneNumber":"305-183-2452"},
  {"id":168,"Name":"Naoma","StreetAddress":"63 Golf Drive","Zip":10673,"EmailAddress":"nsissel4n@house.gov","PhoneNumber":"546-357-2170"},
  {"id":169,"Name":"Doris","StreetAddress":"4295 Dottie Court","Zip":14276,"EmailAddress":"drudeyeard4o@eepurl.com","PhoneNumber":"487-624-3923"},
  {"id":170,"Name":"Lee","StreetAddress":"38 Bayside Trail","Zip":44595,"EmailAddress":"lbamforth4p@prlog.org","PhoneNumber":"783-308-9717"},
  {"id":171,"Name":"Keriann","StreetAddress":"3 Dovetail Place","Zip":30005,"EmailAddress":"kcraine4q@google.de","PhoneNumber":"198-930-3722"},
  {"id":172,"Name":"Granville","StreetAddress":"01582 Burrows Park","Zip":10330,"EmailAddress":"grampage4r@e-recht24.de","PhoneNumber":"679-207-0083"},
  {"id":173,"Name":"Arlene","StreetAddress":"5 Milwaukee Circle","Zip":26415,"EmailAddress":"astrowthers4s@upenn.edu","PhoneNumber":"433-917-6800"},
  {"id":174,"Name":"Woodman","StreetAddress":"02 Northfield Crossing","Zip":25488,"EmailAddress":"wdamrell4t@umich.edu","PhoneNumber":"101-853-9865"},
  {"id":175,"Name":"Cyndia","StreetAddress":"3 Farragut Terrace","Zip":32029,"EmailAddress":"clammerts4u@techcrunch.com","PhoneNumber":"612-718-3551"},
  {"id":176,"Name":"Fee","StreetAddress":"7561 Hallows Parkway","Zip":24429,"EmailAddress":"fmcdunlevy4v@4shared.com","PhoneNumber":"773-279-7838"},
  {"id":177,"Name":"Elsinore","StreetAddress":"4 Springview Crossing","Zip":33883,"EmailAddress":"emacarthur4w@homestead.com","PhoneNumber":"479-175-7267"},
  {"id":178,"Name":"Zelma","StreetAddress":"2 Northridge Parkway","Zip":36748,"EmailAddress":"zancliffe4x@ebay.co.uk","PhoneNumber":"825-864-4443"},
  {"id":179,"Name":"Marcus","StreetAddress":"2 Hanson Trail","Zip":24830,"EmailAddress":"msanford4y@ning.com","PhoneNumber":"385-933-3075"},
  {"id":180,"Name":"Clarice","StreetAddress":"88345 Cardinal Lane","Zip":23901,"EmailAddress":"ccusworth4z@elpais.com","PhoneNumber":"273-863-7128"},
  {"id":181,"Name":"Nanny","StreetAddress":"80 7th Terrace","Zip":12722,"EmailAddress":"ndecent50@so-net.ne.jp","PhoneNumber":"998-368-1780"},
  {"id":182,"Name":"Glyn","StreetAddress":"3 Vermont Hill","Zip":43606,"EmailAddress":"gbattram51@pbs.org","PhoneNumber":"540-253-3010"},
  {"id":183,"Name":"Vanny","StreetAddress":"4 Holmberg Trail","Zip":18632,"EmailAddress":"vtolfrey52@lulu.com","PhoneNumber":"379-857-4147"},
  {"id":184,"Name":"Jephthah","StreetAddress":"96 Grim Park","Zip":44083,"EmailAddress":"jaubin53@plala.or.jp","PhoneNumber":"919-126-5394"},
  {"id":185,"Name":"Risa","StreetAddress":"10904 Anthes Alley","Zip":25882,"EmailAddress":"rhorrigan54@sourceforge.net","PhoneNumber":"381-286-9666"},
  {"id":186,"Name":"Gerrard","StreetAddress":"011 Hovde Circle","Zip":29651,"EmailAddress":"gsoldan55@bandcamp.com","PhoneNumber":"724-440-3401"},
  {"id":187,"Name":"Brittan","StreetAddress":"2997 Lien Plaza","Zip":32292,"EmailAddress":"bzorzenoni56@wunderground.com","PhoneNumber":"310-698-0729"},
  {"id":188,"Name":"Chery","StreetAddress":"82603 Cherokee Terrace","Zip":49202,"EmailAddress":"ccrann57@barnesandnoble.com","PhoneNumber":"924-492-0021"},
  {"id":189,"Name":"Marten","StreetAddress":"71491 Tennyson Plaza","Zip":48526,"EmailAddress":"mgreenmon58@marriott.com","PhoneNumber":"639-986-0878"},
  {"id":190,"Name":"Sean","StreetAddress":"4865 Debra Pass","Zip":47517,"EmailAddress":"sbrigdale59@telegraph.co.uk","PhoneNumber":"459-429-7627"},
  {"id":191,"Name":"Edita","StreetAddress":"28 Grover Parkway","Zip":33664,"EmailAddress":"efurmonger5a@nymag.com","PhoneNumber":"212-965-8994"},
  {"id":192,"Name":"Nissy","StreetAddress":"4 Loeprich Terrace","Zip":33690,"EmailAddress":"nkevlin5b@hostgator.com","PhoneNumber":"340-307-4289"},
  {"id":193,"Name":"Zed","StreetAddress":"9102 Sugar Park","Zip":20922,"EmailAddress":"zraitie5c@newsvine.com","PhoneNumber":"394-783-9499"},
  {"id":194,"Name":"Hussein","StreetAddress":"0 Riverside Court","Zip":38536,"EmailAddress":"hmobius5d@theglobeandmail.com","PhoneNumber":"116-574-5552"},
  {"id":195,"Name":"Fair","StreetAddress":"394 Gina Plaza","Zip":11909,"EmailAddress":"fionn5e@yelp.com","PhoneNumber":"461-816-3321"},
  {"id":196,"Name":"Bruno","StreetAddress":"432 Charing Cross Junction","Zip":43944,"EmailAddress":"btryhorn5f@tripod.com","PhoneNumber":"203-476-7627"},
  {"id":197,"Name":"Magnum","StreetAddress":"22653 Helena Park","Zip":26649,"EmailAddress":"mflieger5g@51.la","PhoneNumber":"727-902-9601"},
  {"id":198,"Name":"Jackie","StreetAddress":"3 Walton Center","Zip":16028,"EmailAddress":"jkerin5h@yandex.ru","PhoneNumber":"407-311-8756"},
  {"id":199,"Name":"Ulises","StreetAddress":"7 Sunnyside Trail","Zip":18918,"EmailAddress":"udominico5i@squarespace.com","PhoneNumber":"260-295-1166"},
  {"id":200,"Name":"Merrie","StreetAddress":"382 Killdeer Hill","Zip":36172,"EmailAddress":"mcasson5j@sohu.com","PhoneNumber":"172-551-8636"},
  {"id":201,"Name":"Drusi","StreetAddress":"218 Sycamore Lane","Zip":15997,"EmailAddress":"driglesford5k@jugem.jp","PhoneNumber":"148-780-3829"},
  {"id":202,"Name":"Timoteo","StreetAddress":"5 Logan Court","Zip":10651,"EmailAddress":"tcorradino5l@nih.gov","PhoneNumber":"657-744-2073"},
  {"id":203,"Name":"Ira","StreetAddress":"0 Gulseth Lane","Zip":11334,"EmailAddress":"iivons5m@mit.edu","PhoneNumber":"856-889-0781"},
  {"id":204,"Name":"Clemence","StreetAddress":"4710 Troy Avenue","Zip":31255,"EmailAddress":"cwaplington5n@sitemeter.com","PhoneNumber":"780-318-5336"},
  {"id":205,"Name":"Perri","StreetAddress":"2064 Parkside Place","Zip":41257,"EmailAddress":"poakly5o@devhub.com","PhoneNumber":"777-677-3418"},
  {"id":206,"Name":"Abra","StreetAddress":"6255 Longview Plaza","Zip":21845,"EmailAddress":"asilbersak5p@hatena.ne.jp","PhoneNumber":"546-450-3061"},
  {"id":207,"Name":"Christie","StreetAddress":"134 Myrtle Drive","Zip":41148,"EmailAddress":"cleversha5q@oracle.com","PhoneNumber":"716-776-5584"},
  {"id":208,"Name":"Alejandro","StreetAddress":"22454 Onsgard Hill","Zip":42252,"EmailAddress":"apellington5r@miibeian.gov.cn","PhoneNumber":"152-855-0220"},
  {"id":209,"Name":"Hilton","StreetAddress":"6003 Glacier Hill Junction","Zip":45046,"EmailAddress":"hdurrell5s@ftc.gov","PhoneNumber":"236-596-0542"},
  {"id":210,"Name":"Veda","StreetAddress":"7 Schurz Way","Zip":11548,"EmailAddress":"vculshew5t@uiuc.edu","PhoneNumber":"563-979-8838"},
  {"id":211,"Name":"Wells","StreetAddress":"18 Barby Terrace","Zip":16732,"EmailAddress":"wlofts5u@msn.com","PhoneNumber":"492-250-0324"},
  {"id":212,"Name":"Jan","StreetAddress":"766 Ridgeway Trail","Zip":13201,"EmailAddress":"jdisney5v@163.com","PhoneNumber":"577-438-0408"},
  {"id":213,"Name":"Martainn","StreetAddress":"4 Garrison Point","Zip":28384,"EmailAddress":"mmacpake5w@reuters.com","PhoneNumber":"491-120-0563"},
  {"id":214,"Name":"Tommi","StreetAddress":"617 Riverside Terrace","Zip":41763,"EmailAddress":"tantonikov5x@cdbaby.com","PhoneNumber":"553-667-4171"},
  {"id":215,"Name":"Barris","StreetAddress":"86229 Amoth Crossing","Zip":11514,"EmailAddress":"branking5y@discuz.net","PhoneNumber":"987-914-2354"},
  {"id":216,"Name":"Sallie","StreetAddress":"692 Debs Hill","Zip":41891,"EmailAddress":"sbamford5z@instagram.com","PhoneNumber":"878-947-4679"},
  {"id":217,"Name":"Parker","StreetAddress":"7378 Jackson Lane","Zip":35976,"EmailAddress":"plansley60@cnn.com","PhoneNumber":"777-380-0736"},
  {"id":218,"Name":"Trescha","StreetAddress":"66915 Elgar Pass","Zip":13565,"EmailAddress":"tchallinor61@youtu.be","PhoneNumber":"481-140-8833"},
  {"id":219,"Name":"Alair","StreetAddress":"9 Alpine Way","Zip":48230,"EmailAddress":"abeament62@yahoo.co.jp","PhoneNumber":"630-460-9548"},
  {"id":220,"Name":"Glynda","StreetAddress":"4614 Westport Center","Zip":33722,"EmailAddress":"gsimnel63@trellian.com","PhoneNumber":"816-299-8832"},
  {"id":221,"Name":"Yorke","StreetAddress":"80137 Dayton Avenue","Zip":39640,"EmailAddress":"ynangle64@wiley.com","PhoneNumber":"629-973-5921"},
  {"id":222,"Name":"Baron","StreetAddress":"900 Weeping Birch Lane","Zip":27827,"EmailAddress":"bsiebart65@go.com","PhoneNumber":"864-753-2932"},
  {"id":223,"Name":"Adel","StreetAddress":"2053 Meadow Vale Crossing","Zip":35861,"EmailAddress":"adumblton66@blogs.com","PhoneNumber":"673-880-0864"},
  {"id":224,"Name":"Ermina","StreetAddress":"715 Delaware Place","Zip":40774,"EmailAddress":"ebawle67@ca.gov","PhoneNumber":"126-927-0300"},
  {"id":225,"Name":"Marline","StreetAddress":"19691 Prentice Parkway","Zip":24185,"EmailAddress":"mrobun68@goo.ne.jp","PhoneNumber":"390-814-7070"},
  {"id":226,"Name":"Germain","StreetAddress":"1 Di Loreto Junction","Zip":42422,"EmailAddress":"gallso69@scribd.com","PhoneNumber":"152-944-1716"},
  {"id":227,"Name":"Will","StreetAddress":"0960 Orin Hill","Zip":39072,"EmailAddress":"wdipietro6a@google.com","PhoneNumber":"561-876-9922"},
  {"id":228,"Name":"Nara","StreetAddress":"63 Nelson Lane","Zip":42937,"EmailAddress":"npoluzzi6b@smh.com.au","PhoneNumber":"126-841-7267"},
  {"id":229,"Name":"Morly","StreetAddress":"50695 Riverside Junction","Zip":46552,"EmailAddress":"mballsdon6c@sciencedaily.com","PhoneNumber":"243-690-3420"},
  {"id":230,"Name":"Ranna","StreetAddress":"11 Twin Pines Crossing","Zip":37516,"EmailAddress":"rmeers6d@networkadvertising.org","PhoneNumber":"215-615-5731"},
  {"id":231,"Name":"Cletus","StreetAddress":"79 Westend Way","Zip":20876,"EmailAddress":"clomond6e@oracle.com","PhoneNumber":"101-342-2242"},
  {"id":232,"Name":"Averil","StreetAddress":"8 Katie Street","Zip":12872,"EmailAddress":"afranceschino6f@aboutads.info","PhoneNumber":"854-599-9093"},
  {"id":233,"Name":"Yalonda","StreetAddress":"3 Straubel Crossing","Zip":23932,"EmailAddress":"ychurchill6g@alexa.com","PhoneNumber":"544-934-2799"},
  {"id":234,"Name":"Rozanne","StreetAddress":"6872 Toban Avenue","Zip":46868,"EmailAddress":"rmathe6h@drupal.org","PhoneNumber":"624-244-3429"},
  {"id":235,"Name":"Penny","StreetAddress":"0690 Del Sol Crossing","Zip":15647,"EmailAddress":"pfragino6i@intel.com","PhoneNumber":"241-772-0866"},
  {"id":236,"Name":"Rickard","StreetAddress":"275 Morning Junction","Zip":48517,"EmailAddress":"rdavidsen6j@umich.edu","PhoneNumber":"691-589-5465"},
  {"id":237,"Name":"Luisa","StreetAddress":"1 Namekagon Place","Zip":45463,"EmailAddress":"lhagland6k@barnesandnoble.com","PhoneNumber":"878-740-5887"},
  {"id":238,"Name":"Gayle","StreetAddress":"3 Sugar Place","Zip":47621,"EmailAddress":"ginett6l@pbs.org","PhoneNumber":"713-597-7187"},
  {"id":239,"Name":"Barnabe","StreetAddress":"747 Redwing Parkway","Zip":35341,"EmailAddress":"bchestle6m@cisco.com","PhoneNumber":"213-446-5986"},
  {"id":240,"Name":"Delmar","StreetAddress":"70 Melvin Junction","Zip":35559,"EmailAddress":"dbridat6n@tmall.com","PhoneNumber":"449-347-2103"},
  {"id":241,"Name":"Raffarty","StreetAddress":"225 Lighthouse Bay Terrace","Zip":49147,"EmailAddress":"rhuyche6o@aboutads.info","PhoneNumber":"587-970-6081"},
  {"id":242,"Name":"Ardys","StreetAddress":"2105 West Avenue","Zip":35496,"EmailAddress":"afarron6p@wp.com","PhoneNumber":"113-316-2082"},
  {"id":243,"Name":"Stephana","StreetAddress":"6 Shopko Street","Zip":41293,"EmailAddress":"slanger6q@lulu.com","PhoneNumber":"371-518-1644"},
  {"id":244,"Name":"Catlin","StreetAddress":"9 Veith Street","Zip":38742,"EmailAddress":"cgorton6r@bbb.org","PhoneNumber":"337-253-4887"},
  {"id":245,"Name":"Davy","StreetAddress":"645 Texas Center","Zip":23491,"EmailAddress":"dtheuss6s@tamu.edu","PhoneNumber":"606-819-3339"},
  {"id":246,"Name":"Billy","StreetAddress":"13848 Sundown Avenue","Zip":16922,"EmailAddress":"bprowse6t@so-net.ne.jp","PhoneNumber":"342-433-4478"},
  {"id":247,"Name":"Ginelle","StreetAddress":"8 Lyons Road","Zip":11642,"EmailAddress":"gdemangeon6u@myspace.com","PhoneNumber":"981-788-8035"},
  {"id":248,"Name":"Mirna","StreetAddress":"86 Norway Maple Hill","Zip":38514,"EmailAddress":"mlutwyche6v@woothemes.com","PhoneNumber":"321-100-3509"},
  {"id":249,"Name":"Lon","StreetAddress":"2 Manufacturers Way","Zip":19887,"EmailAddress":"lmayoral6w@loc.gov","PhoneNumber":"612-549-1958"},
  {"id":250,"Name":"Nanci","StreetAddress":"77424 North Place","Zip":48868,"EmailAddress":"ngiffen6x@baidu.com","PhoneNumber":"675-265-4354"},
  {"id":251,"Name":"Giff","StreetAddress":"29420 Graceland Plaza","Zip":45128,"EmailAddress":"ghaysey6y@reddit.com","PhoneNumber":"232-816-9943"},
  {"id":252,"Name":"Laural","StreetAddress":"8 Kropf Street","Zip":16377,"EmailAddress":"ldow6z@prweb.com","PhoneNumber":"681-542-1646"},
  {"id":253,"Name":"Diarmid","StreetAddress":"0 West Alley","Zip":22019,"EmailAddress":"dyate70@paginegialle.it","PhoneNumber":"143-148-8347"},
  {"id":254,"Name":"Mathilda","StreetAddress":"4346 Cherokee Way","Zip":34366,"EmailAddress":"mmcrae71@intel.com","PhoneNumber":"232-716-0949"},
  {"id":255,"Name":"Brewster","StreetAddress":"792 Parkside Pass","Zip":34141,"EmailAddress":"bmaclese72@google.com.br","PhoneNumber":"564-693-0917"},
  {"id":256,"Name":"Jess","StreetAddress":"65315 Comanche Park","Zip":29866,"EmailAddress":"jcarleton73@soup.io","PhoneNumber":"769-754-7155"},
  {"id":257,"Name":"Brande","StreetAddress":"10386 Manufacturers Park","Zip":24734,"EmailAddress":"bfranciskiewicz74@biblegateway.com","PhoneNumber":"360-695-8833"},
  {"id":258,"Name":"Kimmy","StreetAddress":"868 Namekagon Parkway","Zip":19811,"EmailAddress":"kcapponeer75@hp.com","PhoneNumber":"979-653-2375"},
  {"id":259,"Name":"Sig","StreetAddress":"56 Ludington Street","Zip":41994,"EmailAddress":"sgrimsditch76@webeden.co.uk","PhoneNumber":"619-685-4270"},
  {"id":260,"Name":"Dulsea","StreetAddress":"1651 Southridge Park","Zip":10932,"EmailAddress":"dchurchill77@altervista.org","PhoneNumber":"227-321-2030"},
  {"id":261,"Name":"Peder","StreetAddress":"6 Bonner Lane","Zip":37011,"EmailAddress":"pevensden78@fotki.com","PhoneNumber":"378-271-3536"},
  {"id":262,"Name":"Lucille","StreetAddress":"8352 Fuller Drive","Zip":18344,"EmailAddress":"lbrotherheed79@usda.gov","PhoneNumber":"836-184-6275"},
  {"id":263,"Name":"Bruis","StreetAddress":"9639 Dunning Street","Zip":47846,"EmailAddress":"bwoliter7a@hostgator.com","PhoneNumber":"601-849-7128"},
  {"id":264,"Name":"Merci","StreetAddress":"31969 Spenser Point","Zip":33456,"EmailAddress":"mschwieso7b@google.com.au","PhoneNumber":"416-983-2316"},
  {"id":265,"Name":"Reider","StreetAddress":"556 Oneill Circle","Zip":48866,"EmailAddress":"rtillman7c@mayoclinic.com","PhoneNumber":"568-312-4641"},
  {"id":266,"Name":"Olly","StreetAddress":"857 Artisan Center","Zip":43140,"EmailAddress":"oduffer7d@yahoo.co.jp","PhoneNumber":"657-489-7122"},
  {"id":267,"Name":"Raynell","StreetAddress":"586 Hanson Center","Zip":39664,"EmailAddress":"rbax7e@ucoz.ru","PhoneNumber":"430-321-6762"},
  {"id":268,"Name":"Simonette","StreetAddress":"62 Blackbird Crossing","Zip":48457,"EmailAddress":"skenrack7f@mediafire.com","PhoneNumber":"850-182-5881"},
  {"id":269,"Name":"Dallas","StreetAddress":"7 Towne Crossing","Zip":14246,"EmailAddress":"dfardoe7g@umn.edu","PhoneNumber":"332-439-5508"},
  {"id":270,"Name":"Miriam","StreetAddress":"5 Ryan Trail","Zip":23713,"EmailAddress":"mskace7h@privacy.gov.au","PhoneNumber":"648-672-7310"},
  {"id":271,"Name":"Archibaldo","StreetAddress":"5 Barnett Junction","Zip":19177,"EmailAddress":"afeeley7i@vinaora.com","PhoneNumber":"245-843-5906"},
  {"id":272,"Name":"Merline","StreetAddress":"1 Dixon Junction","Zip":10711,"EmailAddress":"mgrocutt7j@usatoday.com","PhoneNumber":"217-242-0127"},
  {"id":273,"Name":"Cordy","StreetAddress":"9 Hazelcrest Hill","Zip":48056,"EmailAddress":"cbirkby7k@bloglines.com","PhoneNumber":"312-510-9519"},
  {"id":274,"Name":"Eran","StreetAddress":"74353 Thompson Court","Zip":34662,"EmailAddress":"ebend7l@latimes.com","PhoneNumber":"391-223-0429"},
  {"id":275,"Name":"Bruno","StreetAddress":"68 Packers Way","Zip":28501,"EmailAddress":"bbelham7m@cam.ac.uk","PhoneNumber":"159-730-8070"},
  {"id":276,"Name":"Manfred","StreetAddress":"6 Lakeland Center","Zip":20666,"EmailAddress":"malfonso7n@dell.com","PhoneNumber":"477-659-3571"},
  {"id":277,"Name":"Morgun","StreetAddress":"3325 Buena Vista Trail","Zip":25429,"EmailAddress":"mjepps7o@census.gov","PhoneNumber":"303-925-3840"},
  {"id":278,"Name":"Alvy","StreetAddress":"19 Grayhawk Avenue","Zip":37606,"EmailAddress":"aabramchik7p@technorati.com","PhoneNumber":"921-307-3091"},
  {"id":279,"Name":"Kerianne","StreetAddress":"0 Morrow Center","Zip":17823,"EmailAddress":"kiggo7q@reddit.com","PhoneNumber":"434-289-9239"},
  {"id":280,"Name":"Sibel","StreetAddress":"870 Old Shore Pass","Zip":40382,"EmailAddress":"sslinn7r@examiner.com","PhoneNumber":"822-471-0759"},
  {"id":281,"Name":"Allys","StreetAddress":"73276 Crownhardt Alley","Zip":32670,"EmailAddress":"abarehead7s@springer.com","PhoneNumber":"980-478-4377"},
  {"id":282,"Name":"Randie","StreetAddress":"5530 Gale Court","Zip":47477,"EmailAddress":"rsawart7t@last.fm","PhoneNumber":"940-468-4616"},
  {"id":283,"Name":"Dallon","StreetAddress":"8100 Bashford Way","Zip":30273,"EmailAddress":"dvaughton7u@google.com.au","PhoneNumber":"901-392-7736"},
  {"id":284,"Name":"Consalve","StreetAddress":"7182 Homewood Way","Zip":47184,"EmailAddress":"cpanting7v@umn.edu","PhoneNumber":"853-685-0423"},
  {"id":285,"Name":"Heall","StreetAddress":"9600 Prentice Way","Zip":39297,"EmailAddress":"hstuck7w@disqus.com","PhoneNumber":"643-565-9097"},
  {"id":286,"Name":"Inness","StreetAddress":"5983 Kropf Junction","Zip":40248,"EmailAddress":"iphilp7x@about.com","PhoneNumber":"916-906-8464"},
  {"id":287,"Name":"Morty","StreetAddress":"571 Caliangt Road","Zip":42880,"EmailAddress":"mverdie7y@dagondesign.com","PhoneNumber":"121-589-5805"},
  {"id":288,"Name":"Albina","StreetAddress":"9 Spaight Hill","Zip":31205,"EmailAddress":"amandifield7z@paypal.com","PhoneNumber":"259-436-9341"},
  {"id":289,"Name":"Fidel","StreetAddress":"2936 Crowley Junction","Zip":48010,"EmailAddress":"fsexcey80@cloudflare.com","PhoneNumber":"742-641-8307"},
  {"id":290,"Name":"Malvin","StreetAddress":"6214 Sunbrook Park","Zip":37607,"EmailAddress":"mvegas81@weather.com","PhoneNumber":"683-771-8177"},
  {"id":291,"Name":"Nat","StreetAddress":"7 Ryan Street","Zip":38251,"EmailAddress":"nburbank82@loc.gov","PhoneNumber":"909-799-0081"},
  {"id":292,"Name":"Saba","StreetAddress":"37092 Monument Park","Zip":42258,"EmailAddress":"screebo83@furl.net","PhoneNumber":"203-770-5110"},
  {"id":293,"Name":"Paulita","StreetAddress":"35455 Fair Oaks Pass","Zip":20680,"EmailAddress":"pbullard84@addthis.com","PhoneNumber":"285-692-8224"},
  {"id":294,"Name":"Thedric","StreetAddress":"2 Bunker Hill Hill","Zip":33639,"EmailAddress":"tgoldsbury85@theglobeandmail.com","PhoneNumber":"491-284-6821"},
  {"id":295,"Name":"Rey","StreetAddress":"1967 Maple Wood Park","Zip":31473,"EmailAddress":"rhallen86@yale.edu","PhoneNumber":"623-518-2410"},
  {"id":296,"Name":"Burch","StreetAddress":"15672 Kings Pass","Zip":48484,"EmailAddress":"bburdytt87@samsung.com","PhoneNumber":"792-246-6648"},
  {"id":297,"Name":"Darius","StreetAddress":"31 School Parkway","Zip":21481,"EmailAddress":"dbuckleigh88@intel.com","PhoneNumber":"646-442-2920"},
  {"id":298,"Name":"Jozef","StreetAddress":"9 Transport Alley","Zip":37737,"EmailAddress":"jmurford89@google.com.au","PhoneNumber":"663-193-5740"},
  {"id":299,"Name":"Nonnah","StreetAddress":"30470 Forest Circle","Zip":12331,"EmailAddress":"nhuscroft8a@live.com","PhoneNumber":"928-104-5600"},
  {"id":300,"Name":"Dee","StreetAddress":"647 Superior Circle","Zip":19461,"EmailAddress":"dstqueintain8b@last.fm","PhoneNumber":"789-754-7483"},
  {"id":301,"Name":"Aharon","StreetAddress":"95 Hollow Ridge Center","Zip":26289,"EmailAddress":"aeul8c@woothemes.com","PhoneNumber":"302-243-0894"},
  {"id":302,"Name":"Darb","StreetAddress":"8 Rigney Circle","Zip":10279,"EmailAddress":"daldiss8d@google.ca","PhoneNumber":"378-953-1138"},
  {"id":303,"Name":"Camile","StreetAddress":"01860 Rowland Terrace","Zip":43144,"EmailAddress":"cselvey8e@thetimes.co.uk","PhoneNumber":"316-226-7976"},
  {"id":304,"Name":"Violet","StreetAddress":"86 Hazelcrest Avenue","Zip":12634,"EmailAddress":"vconstantine8f@baidu.com","PhoneNumber":"749-800-2392"},
  {"id":305,"Name":"Marsha","StreetAddress":"529 Brickson Park Place","Zip":17567,"EmailAddress":"mkleinzweig8g@msn.com","PhoneNumber":"957-389-6358"},
  {"id":306,"Name":"Lisa","StreetAddress":"632 Delladonna Hill","Zip":25248,"EmailAddress":"lsulter8h@cocolog-nifty.com","PhoneNumber":"936-296-3336"},
  {"id":307,"Name":"Kara","StreetAddress":"81 Kim Court","Zip":39408,"EmailAddress":"kdionisetti8i@angelfire.com","PhoneNumber":"957-186-1468"},
  {"id":308,"Name":"Jarrett","StreetAddress":"2846 Sauthoff Pass","Zip":30094,"EmailAddress":"jthatcham8j@seattletimes.com","PhoneNumber":"933-217-3093"},
  {"id":309,"Name":"Merrick","StreetAddress":"1191 Basil Drive","Zip":14878,"EmailAddress":"mgorhardt8k@prlog.org","PhoneNumber":"296-294-9034"},
  {"id":310,"Name":"Jeramey","StreetAddress":"619 Waxwing Alley","Zip":24650,"EmailAddress":"jbondar8l@miibeian.gov.cn","PhoneNumber":"517-269-6948"},
  {"id":311,"Name":"Darrelle","StreetAddress":"7 Eliot Hill","Zip":15210,"EmailAddress":"ddaid8m@cyberchimps.com","PhoneNumber":"505-723-4193"},
  {"id":312,"Name":"Ab","StreetAddress":"8 Parkside Trail","Zip":35580,"EmailAddress":"acargen8n@lycos.com","PhoneNumber":"860-401-3592"},
  {"id":313,"Name":"Lilias","StreetAddress":"188 Raven Place","Zip":35577,"EmailAddress":"lcharke8o@sun.com","PhoneNumber":"717-984-8324"},
  {"id":314,"Name":"Ward","StreetAddress":"39 Riverside Place","Zip":10112,"EmailAddress":"wguyet8p@rediff.com","PhoneNumber":"841-455-9773"},
  {"id":315,"Name":"Heloise","StreetAddress":"7989 North Plaza","Zip":10827,"EmailAddress":"hwriter8q@phpbb.com","PhoneNumber":"969-644-5556"},
  {"id":316,"Name":"Karel","StreetAddress":"02 Hooker Circle","Zip":39223,"EmailAddress":"kalejandro8r@paypal.com","PhoneNumber":"509-950-4085"},
  {"id":317,"Name":"Jasmin","StreetAddress":"1894 Gina Street","Zip":40470,"EmailAddress":"jaleksic8s@about.me","PhoneNumber":"102-728-9427"},
  {"id":318,"Name":"Jayme","StreetAddress":"764 Superior Junction","Zip":48277,"EmailAddress":"jwoolf8t@seesaa.net","PhoneNumber":"613-911-0270"},
  {"id":319,"Name":"Humberto","StreetAddress":"849 Rieder Road","Zip":13827,"EmailAddress":"hshergold8u@epa.gov","PhoneNumber":"823-883-9056"},
  {"id":320,"Name":"Brooks","StreetAddress":"03 Forest Parkway","Zip":16249,"EmailAddress":"bgosneye8v@taobao.com","PhoneNumber":"744-490-7593"},
  {"id":321,"Name":"Emalia","StreetAddress":"84510 Welch Plaza","Zip":45674,"EmailAddress":"echalcraft8w@reverbnation.com","PhoneNumber":"286-530-4872"},
  {"id":322,"Name":"Merle","StreetAddress":"7952 Ronald Regan Trail","Zip":25229,"EmailAddress":"mjochanany8x@dagondesign.com","PhoneNumber":"309-418-8394"},
  {"id":323,"Name":"Sax","StreetAddress":"23935 Atwood Crossing","Zip":42558,"EmailAddress":"sreinhart8y@ask.com","PhoneNumber":"678-401-0176"},
  {"id":324,"Name":"Wilma","StreetAddress":"28 Oxford Drive","Zip":47946,"EmailAddress":"wgagen8z@tripod.com","PhoneNumber":"985-898-4453"},
  {"id":325,"Name":"Farley","StreetAddress":"55073 Pawling Terrace","Zip":32651,"EmailAddress":"fkane90@abc.net.au","PhoneNumber":"234-217-5179"},
  {"id":326,"Name":"Helaina","StreetAddress":"5 Hazelcrest Hill","Zip":14161,"EmailAddress":"hchettle91@xing.com","PhoneNumber":"924-197-1564"},
  {"id":327,"Name":"Dag","StreetAddress":"71319 Blaine Hill","Zip":35137,"EmailAddress":"dbyrom92@rakuten.co.jp","PhoneNumber":"849-743-3701"},
  {"id":328,"Name":"Brockie","StreetAddress":"0 Manitowish Lane","Zip":23569,"EmailAddress":"borgel93@aboutads.info","PhoneNumber":"497-107-2762"},
  {"id":329,"Name":"Elliot","StreetAddress":"950 Arrowood Road","Zip":40937,"EmailAddress":"eailsbury94@yandex.ru","PhoneNumber":"431-467-0082"},
  {"id":330,"Name":"Dylan","StreetAddress":"47672 American Trail","Zip":12877,"EmailAddress":"dmepsted95@gov.uk","PhoneNumber":"617-199-0133"},
  {"id":331,"Name":"Noemi","StreetAddress":"6 Johnson Court","Zip":26631,"EmailAddress":"nbradder96@networksolutions.com","PhoneNumber":"845-581-9187"},
  {"id":332,"Name":"Wadsworth","StreetAddress":"86856 Portage Way","Zip":29715,"EmailAddress":"wsemken97@redcross.org","PhoneNumber":"135-642-6400"},
  {"id":333,"Name":"Ebony","StreetAddress":"025 Susan Parkway","Zip":25889,"EmailAddress":"elayfield98@stumbleupon.com","PhoneNumber":"616-568-9465"},
  {"id":334,"Name":"Flore","StreetAddress":"29 Knutson Street","Zip":48081,"EmailAddress":"fyewdell99@github.com","PhoneNumber":"410-798-5311"},
  {"id":335,"Name":"Osbert","StreetAddress":"8 Rieder Road","Zip":43636,"EmailAddress":"omolines9a@tripod.com","PhoneNumber":"834-993-5700"},
  {"id":336,"Name":"Ninon","StreetAddress":"9446 Bayside Hill","Zip":35906,"EmailAddress":"ndeniskevich9b@theguardian.com","PhoneNumber":"350-614-7821"},
  {"id":337,"Name":"Karalee","StreetAddress":"6 Fuller Lane","Zip":26623,"EmailAddress":"kmasterman9c@is.gd","PhoneNumber":"161-735-0461"},
  {"id":338,"Name":"Lyn","StreetAddress":"9268 Havey Terrace","Zip":47177,"EmailAddress":"lhindrick9d@nifty.com","PhoneNumber":"485-999-6707"},
  {"id":339,"Name":"Rozamond","StreetAddress":"5 Pond Parkway","Zip":40260,"EmailAddress":"rmaitland9e@twitter.com","PhoneNumber":"814-898-7513"},
  {"id":340,"Name":"Kailey","StreetAddress":"91 Iowa Way","Zip":42821,"EmailAddress":"kdosedale9f@marriott.com","PhoneNumber":"532-489-1746"},
  {"id":341,"Name":"Calv","StreetAddress":"51 Southridge Alley","Zip":39509,"EmailAddress":"cgleed9g@walmart.com","PhoneNumber":"595-820-4831"},
  {"id":342,"Name":"Kali","StreetAddress":"308 Corry Street","Zip":45403,"EmailAddress":"kgomer9h@umich.edu","PhoneNumber":"750-289-2915"},
  {"id":343,"Name":"Olia","StreetAddress":"9 Roth Center","Zip":42550,"EmailAddress":"ojozefczak9i@spotify.com","PhoneNumber":"568-834-5432"},
  {"id":344,"Name":"Moira","StreetAddress":"05 Bay Street","Zip":10121,"EmailAddress":"mlamar9j@zdnet.com","PhoneNumber":"766-349-7301"},
  {"id":345,"Name":"Tania","StreetAddress":"2 Hoffman Lane","Zip":27149,"EmailAddress":"tsangwine9k@furl.net","PhoneNumber":"820-304-3887"},
  {"id":346,"Name":"Kori","StreetAddress":"49067 Lakewood Gardens Drive","Zip":27519,"EmailAddress":"kfairbourne9l@vistaprint.com","PhoneNumber":"715-824-3253"},
  {"id":347,"Name":"Amby","StreetAddress":"5 High Crossing Hill","Zip":49915,"EmailAddress":"agreenside9m@jugem.jp","PhoneNumber":"548-394-3897"},
  {"id":348,"Name":"Halsy","StreetAddress":"6588 Continental Road","Zip":27961,"EmailAddress":"hskarr9n@globo.com","PhoneNumber":"936-411-3494"},
  {"id":349,"Name":"Mirabel","StreetAddress":"56 Memorial Road","Zip":40502,"EmailAddress":"mderdes9o@people.com.cn","PhoneNumber":"625-665-7385"},
  {"id":350,"Name":"Lillis","StreetAddress":"460 Northland Place","Zip":21757,"EmailAddress":"lspinella9p@fastcompany.com","PhoneNumber":"346-530-2485"},
  {"id":351,"Name":"Clarine","StreetAddress":"1541 Norway Maple Center","Zip":36742,"EmailAddress":"cmurney9q@usda.gov","PhoneNumber":"335-895-6706"},
  {"id":352,"Name":"Zelda","StreetAddress":"1836 Fisk Center","Zip":30363,"EmailAddress":"zsink9r@paginegialle.it","PhoneNumber":"739-632-0514"},
  {"id":353,"Name":"Katuscha","StreetAddress":"845 Nova Drive","Zip":13307,"EmailAddress":"kliff9s@pinterest.com","PhoneNumber":"365-164-1645"},
  {"id":354,"Name":"Oralia","StreetAddress":"54647 Bayside Parkway","Zip":14130,"EmailAddress":"ocolcomb9t@japanpost.jp","PhoneNumber":"933-160-9827"},
  {"id":355,"Name":"Waldo","StreetAddress":"08060 Warbler Point","Zip":47336,"EmailAddress":"wcorbin9u@jigsy.com","PhoneNumber":"281-762-9630"},
  {"id":356,"Name":"Lodovico","StreetAddress":"29953 Charing Cross Avenue","Zip":10202,"EmailAddress":"lhugnin9v@statcounter.com","PhoneNumber":"446-150-1742"},
  {"id":357,"Name":"Collen","StreetAddress":"372 Hallows Lane","Zip":16892,"EmailAddress":"cdimelow9w@surveymonkey.com","PhoneNumber":"892-133-7475"},
  {"id":358,"Name":"Che","StreetAddress":"0 Beilfuss Crossing","Zip":15197,"EmailAddress":"cdike9x@ed.gov","PhoneNumber":"240-116-8681"},
  {"id":359,"Name":"Garret","StreetAddress":"1 Moose Place","Zip":39639,"EmailAddress":"gjonuzi9y@jigsy.com","PhoneNumber":"363-951-7947"},
  {"id":360,"Name":"Roselia","StreetAddress":"78106 Mitchell Avenue","Zip":48331,"EmailAddress":"rdwyer9z@t.co","PhoneNumber":"765-866-9483"},
  {"id":361,"Name":"Murielle","StreetAddress":"89072 Reindahl Pass","Zip":49956,"EmailAddress":"mwessona0@sohu.com","PhoneNumber":"728-584-2813"},
  {"id":362,"Name":"Barr","StreetAddress":"86 Lawn Junction","Zip":21923,"EmailAddress":"bruoffa1@wikipedia.org","PhoneNumber":"694-165-6298"},
  {"id":363,"Name":"Rosabelle","StreetAddress":"1 Dexter Point","Zip":12575,"EmailAddress":"rmckennaa2@istockphoto.com","PhoneNumber":"445-195-4721"},
  {"id":364,"Name":"Ronnie","StreetAddress":"92 Haas Point","Zip":38704,"EmailAddress":"rhaleya3@java.com","PhoneNumber":"597-331-5057"},
  {"id":365,"Name":"Nichole","StreetAddress":"26 Commercial Pass","Zip":49463,"EmailAddress":"ncatheea4@naver.com","PhoneNumber":"599-504-0448"},
  {"id":366,"Name":"Cherilyn","StreetAddress":"25 Haas Drive","Zip":33060,"EmailAddress":"cpennicka5@goo.ne.jp","PhoneNumber":"102-189-8688"},
  {"id":367,"Name":"Sam","StreetAddress":"755 Lotheville Court","Zip":17247,"EmailAddress":"smaccolea6@imdb.com","PhoneNumber":"900-302-5414"},
  {"id":368,"Name":"Jamill","StreetAddress":"3222 Nova Street","Zip":36151,"EmailAddress":"jaxworthya7@hubpages.com","PhoneNumber":"820-329-4448"},
  {"id":369,"Name":"Ardeen","StreetAddress":"02422 Bultman Pass","Zip":40582,"EmailAddress":"apulvera8@eventbrite.com","PhoneNumber":"676-602-7124"},
  {"id":370,"Name":"Carley","StreetAddress":"7 Holy Cross Place","Zip":49338,"EmailAddress":"clefevrea9@skype.com","PhoneNumber":"725-627-6224"},
  {"id":371,"Name":"Klement","StreetAddress":"9 Oak Valley Junction","Zip":39634,"EmailAddress":"kplaxtonaa@nytimes.com","PhoneNumber":"346-344-5386"},
  {"id":372,"Name":"Rosaline","StreetAddress":"87532 7th Junction","Zip":23423,"EmailAddress":"rcolbertsonab@rambler.ru","PhoneNumber":"719-844-6224"},
  {"id":373,"Name":"Ingamar","StreetAddress":"3 Loomis Parkway","Zip":47214,"EmailAddress":"idunningac@skype.com","PhoneNumber":"108-885-5956"},
  {"id":374,"Name":"Gerri","StreetAddress":"9 Fairview Plaza","Zip":35201,"EmailAddress":"glelliottad@google.com.br","PhoneNumber":"496-719-3860"},
  {"id":375,"Name":"Shannon","StreetAddress":"62 Clarendon Center","Zip":10198,"EmailAddress":"smacelaneae@springer.com","PhoneNumber":"637-422-8427"},
  {"id":376,"Name":"Johanna","StreetAddress":"0 8th Circle","Zip":13287,"EmailAddress":"jgerrelsaf@senate.gov","PhoneNumber":"632-348-0037"},
  {"id":377,"Name":"Jobi","StreetAddress":"1 Starling Way","Zip":38910,"EmailAddress":"jkynderag@princeton.edu","PhoneNumber":"670-328-1643"},
  {"id":378,"Name":"Lorelle","StreetAddress":"36153 La Follette Pass","Zip":32436,"EmailAddress":"ltideyah@goodreads.com","PhoneNumber":"395-925-9807"},
  {"id":379,"Name":"Zerk","StreetAddress":"0 Porter Crossing","Zip":32925,"EmailAddress":"zanthesai@oracle.com","PhoneNumber":"257-378-5282"},
  {"id":380,"Name":"Hank","StreetAddress":"18798 Kim Parkway","Zip":22245,"EmailAddress":"hmerrimentaj@berkeley.edu","PhoneNumber":"349-813-3888"},
  {"id":381,"Name":"Tallou","StreetAddress":"4694 Elka Park","Zip":47675,"EmailAddress":"tfollenak@usnews.com","PhoneNumber":"243-121-4543"},
  {"id":382,"Name":"Liva","StreetAddress":"17865 Eagle Crest Trail","Zip":19359,"EmailAddress":"lfydoal@baidu.com","PhoneNumber":"579-211-8087"},
  {"id":383,"Name":"Harmon","StreetAddress":"29265 Continental Street","Zip":12617,"EmailAddress":"hrushmeream@baidu.com","PhoneNumber":"876-880-5169"},
  {"id":384,"Name":"Lauritz","StreetAddress":"38837 Almo Alley","Zip":10978,"EmailAddress":"lleapan@g.co","PhoneNumber":"507-625-1710"},
  {"id":385,"Name":"Denver","StreetAddress":"9 Bluejay Terrace","Zip":25098,"EmailAddress":"dsomerscalesao@flavors.me","PhoneNumber":"187-447-5456"},
  {"id":386,"Name":"Astrid","StreetAddress":"23 Mayfield Center","Zip":13778,"EmailAddress":"aallertonap@51.la","PhoneNumber":"606-738-8910"},
  {"id":387,"Name":"Janaya","StreetAddress":"89241 Surrey Road","Zip":34339,"EmailAddress":"jkinvanaq@auda.org.au","PhoneNumber":"510-808-8383"},
  {"id":388,"Name":"Tallie","StreetAddress":"87078 Oriole Street","Zip":14723,"EmailAddress":"tbarukhar@live.com","PhoneNumber":"660-462-6490"},
  {"id":389,"Name":"Chicky","StreetAddress":"1466 Jenifer Point","Zip":18575,"EmailAddress":"ctoothillas@etsy.com","PhoneNumber":"193-495-5856"},
  {"id":390,"Name":"Cori","StreetAddress":"66660 Acker Place","Zip":22685,"EmailAddress":"cacremanat@flickr.com","PhoneNumber":"127-415-6375"},
  {"id":391,"Name":"Michele","StreetAddress":"0 Moland Hill","Zip":16088,"EmailAddress":"myanovau@sun.com","PhoneNumber":"960-140-9087"},
  {"id":392,"Name":"Almira","StreetAddress":"89318 Melby Circle","Zip":27595,"EmailAddress":"amousbyav@gnu.org","PhoneNumber":"246-475-9628"},
  {"id":393,"Name":"Annamaria","StreetAddress":"343 Granby Circle","Zip":37169,"EmailAddress":"aramshawaw@google.co.jp","PhoneNumber":"148-182-8530"},
  {"id":394,"Name":"Alane","StreetAddress":"849 Barnett Drive","Zip":43500,"EmailAddress":"ameinsax@intel.com","PhoneNumber":"853-712-7344"},
  {"id":395,"Name":"Burnard","StreetAddress":"5 Roth Terrace","Zip":33531,"EmailAddress":"bbladesmithay@reference.com","PhoneNumber":"614-301-9416"},
  {"id":396,"Name":"Kris","StreetAddress":"163 Dayton Plaza","Zip":13392,"EmailAddress":"kcockburnaz@nbcnews.com","PhoneNumber":"645-259-8839"},
  {"id":397,"Name":"Rani","StreetAddress":"78 Loftsgordon Junction","Zip":31947,"EmailAddress":"rwandrachb0@blogger.com","PhoneNumber":"726-910-4394"},
  {"id":398,"Name":"Consalve","StreetAddress":"581 Lindbergh Crossing","Zip":29272,"EmailAddress":"cbaseyb1@360.cn","PhoneNumber":"584-960-8528"},
  {"id":399,"Name":"Modestia","StreetAddress":"555 Old Shore Pass","Zip":35566,"EmailAddress":"mjensenb2@mozilla.com","PhoneNumber":"792-770-1086"},
  {"id":400,"Name":"Zia","StreetAddress":"8012 Springview Alley","Zip":37337,"EmailAddress":"zwoollerb3@tinyurl.com","PhoneNumber":"446-643-8538"},
  {"id":401,"Name":"Francine","StreetAddress":"7589 Homewood Alley","Zip":14262,"EmailAddress":"fstriblingb4@etsy.com","PhoneNumber":"677-136-1549"},
  {"id":402,"Name":"Damiano","StreetAddress":"4 Mifflin Hill","Zip":36457,"EmailAddress":"dkrysztofowiczb5@blog.com","PhoneNumber":"292-173-3905"},
  {"id":403,"Name":"Archibald","StreetAddress":"57 Kenwood Pass","Zip":19225,"EmailAddress":"apilleyb6@dmoz.org","PhoneNumber":"146-830-1336"},
  {"id":404,"Name":"Sayers","StreetAddress":"454 Blue Bill Park Pass","Zip":39691,"EmailAddress":"shardikerb7@google.co.uk","PhoneNumber":"951-490-1930"},
  {"id":405,"Name":"Flossy","StreetAddress":"89 Dixon Way","Zip":43819,"EmailAddress":"ftellenbrokerb8@mapquest.com","PhoneNumber":"840-718-8735"},
  {"id":406,"Name":"Margarette","StreetAddress":"4446 8th Center","Zip":20256,"EmailAddress":"msimnorb9@friendfeed.com","PhoneNumber":"292-264-2408"},
  {"id":407,"Name":"Nollie","StreetAddress":"3503 Surrey Park","Zip":28638,"EmailAddress":"nhastewellba@seesaa.net","PhoneNumber":"825-773-7402"},
  {"id":408,"Name":"Lin","StreetAddress":"94874 Walton Circle","Zip":23599,"EmailAddress":"lfitzjohnbb@dyndns.org","PhoneNumber":"906-894-0069"},
  {"id":409,"Name":"Ola","StreetAddress":"09 Washington Hill","Zip":11188,"EmailAddress":"ovassanobc@gov.uk","PhoneNumber":"352-244-0646"},
  {"id":410,"Name":"Jacynth","StreetAddress":"897 Oakridge Parkway","Zip":49690,"EmailAddress":"jbraggintonbd@ftc.gov","PhoneNumber":"389-736-9187"},
  {"id":411,"Name":"Ronnie","StreetAddress":"910 Forest Run Court","Zip":27008,"EmailAddress":"reldersbe@edublogs.org","PhoneNumber":"801-614-8946"},
  {"id":412,"Name":"Durand","StreetAddress":"98 Atwood Crossing","Zip":45442,"EmailAddress":"despinbf@posterous.com","PhoneNumber":"289-585-1577"},
  {"id":413,"Name":"Pauly","StreetAddress":"407 Marquette Hill","Zip":41684,"EmailAddress":"ppantecostbg@ucoz.ru","PhoneNumber":"746-541-0029"},
  {"id":414,"Name":"Rochette","StreetAddress":"5 Wayridge Park","Zip":45654,"EmailAddress":"rhawthornbh@techcrunch.com","PhoneNumber":"980-345-4086"},
  {"id":415,"Name":"Bianka","StreetAddress":"5142 Old Gate Terrace","Zip":32021,"EmailAddress":"bplakbi@freewebs.com","PhoneNumber":"707-848-4117"},
  {"id":416,"Name":"Harmonie","StreetAddress":"03003 Toban Lane","Zip":20265,"EmailAddress":"hangricbj@blinklist.com","PhoneNumber":"540-356-6889"},
  {"id":417,"Name":"Doralia","StreetAddress":"54 Sundown Circle","Zip":15118,"EmailAddress":"dmuxworthybk@dell.com","PhoneNumber":"497-160-6266"},
  {"id":418,"Name":"Timmie","StreetAddress":"0 Twin Pines Street","Zip":38349,"EmailAddress":"tsteinsonbl@tinyurl.com","PhoneNumber":"843-109-6729"},
  {"id":419,"Name":"Frayda","StreetAddress":"10 Cherokee Terrace","Zip":10370,"EmailAddress":"fgerhardtbm@slideshare.net","PhoneNumber":"832-919-6150"},
  {"id":420,"Name":"Miltie","StreetAddress":"77 Bartillon Trail","Zip":25392,"EmailAddress":"mloggiebn@usa.gov","PhoneNumber":"274-714-4126"},
  {"id":421,"Name":"Clea","StreetAddress":"10 Columbus Way","Zip":25423,"EmailAddress":"ccrowestbo@fc2.com","PhoneNumber":"444-143-3336"},
  {"id":422,"Name":"Eddi","StreetAddress":"48531 Eliot Park","Zip":21181,"EmailAddress":"efouracrebp@bluehost.com","PhoneNumber":"202-810-4217"},
  {"id":423,"Name":"Heywood","StreetAddress":"997 Fairview Trail","Zip":14844,"EmailAddress":"hprovostbq@patch.com","PhoneNumber":"708-433-2863"},
  {"id":424,"Name":"Felecia","StreetAddress":"0576 Wayridge Circle","Zip":30287,"EmailAddress":"fblacktinbr@fc2.com","PhoneNumber":"642-506-8350"},
  {"id":425,"Name":"Iain","StreetAddress":"7 Elka Terrace","Zip":20244,"EmailAddress":"ivaleribs@shinystat.com","PhoneNumber":"165-775-5052"},
  {"id":426,"Name":"Matthaeus","StreetAddress":"7 Basil Court","Zip":47312,"EmailAddress":"mbirdwistlebt@nydailynews.com","PhoneNumber":"895-872-3797"},
  {"id":427,"Name":"Creighton","StreetAddress":"56523 7th Street","Zip":32294,"EmailAddress":"cwellmanbu@ezinearticles.com","PhoneNumber":"152-948-6087"},
  {"id":428,"Name":"Gwendolen","StreetAddress":"1963 Novick Drive","Zip":11504,"EmailAddress":"glovittbv@jalbum.net","PhoneNumber":"523-169-4860"},
  {"id":429,"Name":"Caryl","StreetAddress":"360 Ramsey Street","Zip":43628,"EmailAddress":"cbinnellbw@vkontakte.ru","PhoneNumber":"223-514-2225"},
  {"id":430,"Name":"Norrie","StreetAddress":"70 Armistice Plaza","Zip":18099,"EmailAddress":"nsudranbx@ifeng.com","PhoneNumber":"852-816-0740"},
  {"id":431,"Name":"Lelah","StreetAddress":"053 Trailsway Terrace","Zip":18392,"EmailAddress":"lnairnby@yellowpages.com","PhoneNumber":"734-794-1950"},
  {"id":432,"Name":"Joscelin","StreetAddress":"84661 Steensland Alley","Zip":18634,"EmailAddress":"jclutebz@trellian.com","PhoneNumber":"251-472-5307"},
  {"id":433,"Name":"Jean","StreetAddress":"18040 Duke Parkway","Zip":32256,"EmailAddress":"jbernaciakc0@comcast.net","PhoneNumber":"996-732-2122"},
  {"id":434,"Name":"Rochella","StreetAddress":"69039 Melby Way","Zip":23206,"EmailAddress":"rmcsherryc1@jigsy.com","PhoneNumber":"780-524-1865"},
  {"id":435,"Name":"Fawn","StreetAddress":"78490 Oxford Pass","Zip":35110,"EmailAddress":"fhainsworthc2@exblog.jp","PhoneNumber":"511-970-2406"},
  {"id":436,"Name":"Ashlan","StreetAddress":"25 Rigney Point","Zip":24711,"EmailAddress":"ascurrahc3@archive.org","PhoneNumber":"409-627-2463"},
  {"id":437,"Name":"Henderson","StreetAddress":"91064 High Crossing Place","Zip":41566,"EmailAddress":"hmordantic4@comcast.net","PhoneNumber":"445-434-6990"},
  {"id":438,"Name":"Patty","StreetAddress":"6680 Porter Park","Zip":43584,"EmailAddress":"pneavec5@1und1.de","PhoneNumber":"699-145-8496"},
  {"id":439,"Name":"Cornell","StreetAddress":"79 Briar Crest Pass","Zip":16957,"EmailAddress":"cvickersc6@nasa.gov","PhoneNumber":"585-323-5521"},
  {"id":440,"Name":"Annemarie","StreetAddress":"73 Judy Junction","Zip":48961,"EmailAddress":"aallotc7@princeton.edu","PhoneNumber":"992-100-1102"},
  {"id":441,"Name":"Tom","StreetAddress":"3 Loomis Crossing","Zip":35321,"EmailAddress":"thamlync8@furl.net","PhoneNumber":"810-132-3645"},
  {"id":442,"Name":"Rey","StreetAddress":"9 Pond Road","Zip":22126,"EmailAddress":"rmaclardiec9@unblog.fr","PhoneNumber":"501-220-6895"},
  {"id":443,"Name":"Anjela","StreetAddress":"43631 Sullivan Place","Zip":17991,"EmailAddress":"akeenca@booking.com","PhoneNumber":"642-227-1899"},
  {"id":444,"Name":"Nikolaus","StreetAddress":"58754 Comanche Road","Zip":29639,"EmailAddress":"nglabachcb@geocities.com","PhoneNumber":"483-331-2744"},
  {"id":445,"Name":"Lani","StreetAddress":"74807 Artisan Street","Zip":24061,"EmailAddress":"lvernazzacc@spiegel.de","PhoneNumber":"618-419-5876"},
  {"id":446,"Name":"Normy","StreetAddress":"595 Hermina Park","Zip":46359,"EmailAddress":"nsambrokcd@slashdot.org","PhoneNumber":"742-703-8425"},
  {"id":447,"Name":"Eada","StreetAddress":"86 Pennsylvania Plaza","Zip":46195,"EmailAddress":"ebrameltce@time.com","PhoneNumber":"601-375-3135"},
  {"id":448,"Name":"Kienan","StreetAddress":"7 Northland Crossing","Zip":23319,"EmailAddress":"kmcclorycf@de.vu","PhoneNumber":"199-252-7487"},
  {"id":449,"Name":"Albert","StreetAddress":"4 Saint Paul Crossing","Zip":24228,"EmailAddress":"acarswellcg@nhs.uk","PhoneNumber":"947-887-2572"},
  {"id":450,"Name":"Sigrid","StreetAddress":"88 Clarendon Crossing","Zip":44929,"EmailAddress":"svallerch@sbwire.com","PhoneNumber":"900-564-6553"},
  {"id":451,"Name":"Katee","StreetAddress":"31148 Loomis Avenue","Zip":37110,"EmailAddress":"kcraggsci@dailymail.co.uk","PhoneNumber":"721-598-4819"},
  {"id":452,"Name":"Valry","StreetAddress":"65 Beilfuss Way","Zip":39566,"EmailAddress":"vdaventrycj@examiner.com","PhoneNumber":"834-507-8901"},
  {"id":453,"Name":"Roseanne","StreetAddress":"9477 Park Meadow Way","Zip":41971,"EmailAddress":"rfaullck@moonfruit.com","PhoneNumber":"435-177-4803"},
  {"id":454,"Name":"Wendy","StreetAddress":"44803 Arkansas Crossing","Zip":40670,"EmailAddress":"wmeachemcl@dmoz.org","PhoneNumber":"771-800-7810"},
  {"id":455,"Name":"Britte","StreetAddress":"9 Birchwood Terrace","Zip":35433,"EmailAddress":"bfaullcm@barnesandnoble.com","PhoneNumber":"616-701-6756"},
  {"id":456,"Name":"Ronny","StreetAddress":"50057 Esker Court","Zip":28367,"EmailAddress":"rstickleycn@godaddy.com","PhoneNumber":"402-916-7035"},
  {"id":457,"Name":"Daryl","StreetAddress":"95 Alpine Junction","Zip":11182,"EmailAddress":"deastmentco@apple.com","PhoneNumber":"627-793-3673"},
  {"id":458,"Name":"Isacco","StreetAddress":"1806 Colorado Plaza","Zip":30563,"EmailAddress":"iewingtoncp@eventbrite.com","PhoneNumber":"315-875-4869"},
  {"id":459,"Name":"Sinclare","StreetAddress":"9549 Anthes Circle","Zip":39434,"EmailAddress":"sbrandrethcq@accuweather.com","PhoneNumber":"488-616-0959"},
  {"id":460,"Name":"Helenelizabeth","StreetAddress":"6 Bartelt Terrace","Zip":26993,"EmailAddress":"hparadycecr@about.com","PhoneNumber":"358-957-8692"},
  {"id":461,"Name":"Meghann","StreetAddress":"8540 Lillian Point","Zip":42343,"EmailAddress":"mcearleycs@meetup.com","PhoneNumber":"374-407-2673"},
  {"id":462,"Name":"Audrye","StreetAddress":"3 Mallory Trail","Zip":13125,"EmailAddress":"ahonackerct@flavors.me","PhoneNumber":"478-574-7343"},
  {"id":463,"Name":"Laurence","StreetAddress":"85165 Dennis Road","Zip":23509,"EmailAddress":"lclewlowcu@time.com","PhoneNumber":"277-273-2036"},
  {"id":464,"Name":"Layton","StreetAddress":"2 Northwestern Street","Zip":45750,"EmailAddress":"llawdencv@shutterfly.com","PhoneNumber":"725-401-3245"},
  {"id":465,"Name":"Blancha","StreetAddress":"41000 Stang Plaza","Zip":19104,"EmailAddress":"bsparshottcw@go.com","PhoneNumber":"983-293-7658"},
  {"id":466,"Name":"Robbie","StreetAddress":"336 Chive Alley","Zip":45356,"EmailAddress":"rhannigancx@plala.or.jp","PhoneNumber":"731-601-5657"},
  {"id":467,"Name":"Brendis","StreetAddress":"77228 Ludington Terrace","Zip":20922,"EmailAddress":"bswiffency@army.mil","PhoneNumber":"274-240-5607"},
  {"id":468,"Name":"Eamon","StreetAddress":"2 Derek Point","Zip":20136,"EmailAddress":"eprucknercz@oaic.gov.au","PhoneNumber":"434-574-9239"},
  {"id":469,"Name":"Allayne","StreetAddress":"58285 Northport Trail","Zip":15995,"EmailAddress":"apennockd0@sciencedaily.com","PhoneNumber":"954-175-9837"},
  {"id":470,"Name":"Cinda","StreetAddress":"4 Valley Edge Center","Zip":49839,"EmailAddress":"carmitd1@slideshare.net","PhoneNumber":"731-778-5944"},
  {"id":471,"Name":"Casie","StreetAddress":"42 Nelson Alley","Zip":31984,"EmailAddress":"ckeningleyd2@nih.gov","PhoneNumber":"146-379-8546"},
  {"id":472,"Name":"Bordie","StreetAddress":"48316 Sherman Circle","Zip":46704,"EmailAddress":"bmackowled3@123-reg.co.uk","PhoneNumber":"749-902-4012"},
  {"id":473,"Name":"Siward","StreetAddress":"64731 Pine View Way","Zip":48728,"EmailAddress":"shembryd4@abc.net.au","PhoneNumber":"868-509-4413"},
  {"id":474,"Name":"Lilllie","StreetAddress":"4 Roth Way","Zip":14996,"EmailAddress":"lburleighd5@amazon.de","PhoneNumber":"994-542-7014"},
  {"id":475,"Name":"Valle","StreetAddress":"195 Arapahoe Street","Zip":42037,"EmailAddress":"vcolbridged6@instagram.com","PhoneNumber":"822-198-8991"},
  {"id":476,"Name":"Yoshi","StreetAddress":"70 Longview Park","Zip":47821,"EmailAddress":"yelpheyd7@accuweather.com","PhoneNumber":"825-900-6883"},
  {"id":477,"Name":"Desirae","StreetAddress":"158 Londonderry Center","Zip":43239,"EmailAddress":"dcummingd8@bigcartel.com","PhoneNumber":"909-862-0158"},
  {"id":478,"Name":"Lee","StreetAddress":"87258 Grayhawk Crossing","Zip":37366,"EmailAddress":"llancasterd9@va.gov","PhoneNumber":"263-346-1142"},
  {"id":479,"Name":"Joela","StreetAddress":"847 Cottonwood Place","Zip":15619,"EmailAddress":"jbernadotda@auda.org.au","PhoneNumber":"173-850-8470"},
  {"id":480,"Name":"Lilli","StreetAddress":"67343 Gale Lane","Zip":11545,"EmailAddress":"lbittanydb@prnewswire.com","PhoneNumber":"359-170-4303"},
  {"id":481,"Name":"Craggie","StreetAddress":"97428 Maywood Trail","Zip":25330,"EmailAddress":"cphilippoudc@php.net","PhoneNumber":"829-461-1479"},
  {"id":482,"Name":"Ethelred","StreetAddress":"0 Farmco Way","Zip":22211,"EmailAddress":"echastangdd@howstuffworks.com","PhoneNumber":"468-269-3297"},
  {"id":483,"Name":"Olga","StreetAddress":"5 Jay Center","Zip":47829,"EmailAddress":"oviantde@ning.com","PhoneNumber":"249-851-4030"},
  {"id":484,"Name":"Piotr","StreetAddress":"9464 Barnett Way","Zip":26784,"EmailAddress":"pvautierdf@squidoo.com","PhoneNumber":"848-904-7093"},
  {"id":485,"Name":"Sayre","StreetAddress":"9548 Express Trail","Zip":48925,"EmailAddress":"slambarthdg@squidoo.com","PhoneNumber":"199-846-1467"},
  {"id":486,"Name":"Liuka","StreetAddress":"02336 Columbus Street","Zip":21015,"EmailAddress":"lnourydh@state.tx.us","PhoneNumber":"579-547-2400"},
  {"id":487,"Name":"Friedrick","StreetAddress":"253 Duke Drive","Zip":33594,"EmailAddress":"fpovalldi@netvibes.com","PhoneNumber":"663-308-5297"},
  {"id":488,"Name":"Gustaf","StreetAddress":"39340 Ilene Court","Zip":45107,"EmailAddress":"gbracedj@scribd.com","PhoneNumber":"589-279-3061"},
  {"id":489,"Name":"Torrin","StreetAddress":"4946 Roth Lane","Zip":30813,"EmailAddress":"tdenoredk@tinyurl.com","PhoneNumber":"835-935-4063"},
  {"id":490,"Name":"Allan","StreetAddress":"060 Randy Lane","Zip":10804,"EmailAddress":"asewterdl@shutterfly.com","PhoneNumber":"779-275-3928"},
  {"id":491,"Name":"Swen","StreetAddress":"7 Schurz Road","Zip":47960,"EmailAddress":"sgresswelldm@360.cn","PhoneNumber":"916-301-5561"},
  {"id":492,"Name":"Concettina","StreetAddress":"9575 Tennessee Point","Zip":18488,"EmailAddress":"cdennesdn@census.gov","PhoneNumber":"769-468-4043"},
  {"id":493,"Name":"Lilllie","StreetAddress":"548 Hagan Drive","Zip":35716,"EmailAddress":"lfiermando@seesaa.net","PhoneNumber":"986-134-4292"},
  {"id":494,"Name":"Karlyn","StreetAddress":"874 Monterey Trail","Zip":39756,"EmailAddress":"knicholsdp@shop-pro.jp","PhoneNumber":"582-234-2997"},
  {"id":495,"Name":"Winnie","StreetAddress":"50 Forster Road","Zip":41307,"EmailAddress":"wschultdq@dedecms.com","PhoneNumber":"970-274-3147"},
  {"id":496,"Name":"Tore","StreetAddress":"3114 Lake View Circle","Zip":47903,"EmailAddress":"tsheepydr@biblegateway.com","PhoneNumber":"226-848-7629"},
  {"id":497,"Name":"Marigold","StreetAddress":"706 Warner Alley","Zip":45853,"EmailAddress":"madameds@woothemes.com","PhoneNumber":"948-639-1116"},
  {"id":498,"Name":"Goober","StreetAddress":"67942 Washington Drive","Zip":47538,"EmailAddress":"gbrundt@diigo.com","PhoneNumber":"226-263-2185"},
  {"id":499,"Name":"Annemarie","StreetAddress":"4302 Banding Court","Zip":12066,"EmailAddress":"adigancedu@sogou.com","PhoneNumber":"576-670-5223"},
  {"id":500,"Name":"Marthena","StreetAddress":"981 Farmco Crossing","Zip":49154,"EmailAddress":"mvallackdv@github.com","PhoneNumber":"537-116-1075"},
  {"id":501,"Name":"Crista","StreetAddress":"75 Ruskin Court","Zip":17123,"EmailAddress":"ccovilldw@lulu.com","PhoneNumber":"413-623-1816"},
  {"id":502,"Name":"Debra","StreetAddress":"1 Mcbride Center","Zip":30684,"EmailAddress":"dcassedx@edublogs.org","PhoneNumber":"950-921-9341"},
  {"id":503,"Name":"Carolina","StreetAddress":"54718 Warrior Point","Zip":29183,"EmailAddress":"cstandendy@fda.gov","PhoneNumber":"625-924-1864"},
  {"id":504,"Name":"Shane","StreetAddress":"95 Hanover Place","Zip":46679,"EmailAddress":"swakefielddz@fastcompany.com","PhoneNumber":"395-232-9660"},
  {"id":505,"Name":"Lenci","StreetAddress":"3529 Continental Trail","Zip":16311,"EmailAddress":"locodihiee0@boston.com","PhoneNumber":"620-968-7190"},
  {"id":506,"Name":"Nanny","StreetAddress":"321 Briar Crest Pass","Zip":42074,"EmailAddress":"nredparthe1@mail.ru","PhoneNumber":"594-580-3478"},
  {"id":507,"Name":"Elle","StreetAddress":"23 Huxley Center","Zip":20260,"EmailAddress":"emephame2@hhs.gov","PhoneNumber":"362-645-5843"},
  {"id":508,"Name":"Tris","StreetAddress":"2382 Norway Maple Point","Zip":31317,"EmailAddress":"tgolye3@msn.com","PhoneNumber":"352-161-3839"},
  {"id":509,"Name":"Kirby","StreetAddress":"3 Red Cloud Hill","Zip":39880,"EmailAddress":"kaleksidzee4@nba.com","PhoneNumber":"176-745-6966"},
  {"id":510,"Name":"Wilie","StreetAddress":"75 Boyd Trail","Zip":25600,"EmailAddress":"wtwiddye5@trellian.com","PhoneNumber":"142-622-3280"},
  {"id":511,"Name":"Blanca","StreetAddress":"4 Independence Junction","Zip":38396,"EmailAddress":"bstonbridgee6@cyberchimps.com","PhoneNumber":"318-308-7937"},
  {"id":512,"Name":"Lulita","StreetAddress":"73615 Saint Paul Circle","Zip":49054,"EmailAddress":"lnayere7@tripod.com","PhoneNumber":"751-663-1404"},
  {"id":513,"Name":"Rosetta","StreetAddress":"76897 Tony Park","Zip":40785,"EmailAddress":"rquartlye8@com.com","PhoneNumber":"804-736-1412"},
  {"id":514,"Name":"Emilio","StreetAddress":"1182 Hoepker Circle","Zip":47323,"EmailAddress":"edougale9@reverbnation.com","PhoneNumber":"610-406-8829"},
  {"id":515,"Name":"Ulises","StreetAddress":"82 Mallard Pass","Zip":30544,"EmailAddress":"ubrayleyea@imageshack.us","PhoneNumber":"225-383-5504"},
  {"id":516,"Name":"Sherilyn","StreetAddress":"32067 Armistice Point","Zip":29579,"EmailAddress":"sstarsmoreeb@seesaa.net","PhoneNumber":"371-906-1109"},
  {"id":517,"Name":"Jacklin","StreetAddress":"738 Forster Plaza","Zip":24039,"EmailAddress":"jhabershonec@statcounter.com","PhoneNumber":"788-334-6545"},
  {"id":518,"Name":"Chevy","StreetAddress":"7 Steensland Parkway","Zip":49840,"EmailAddress":"ctattersalled@ifeng.com","PhoneNumber":"195-460-8799"},
  {"id":519,"Name":"Raddie","StreetAddress":"3379 Eagan Parkway","Zip":36584,"EmailAddress":"rsowteree@webeden.co.uk","PhoneNumber":"518-879-6116"},
  {"id":520,"Name":"Elisa","StreetAddress":"333 Parkside Pass","Zip":41922,"EmailAddress":"ecalderaef@utexas.edu","PhoneNumber":"714-688-3610"},
  {"id":521,"Name":"Willis","StreetAddress":"81 Kipling Terrace","Zip":39512,"EmailAddress":"wgirardieg@narod.ru","PhoneNumber":"785-911-3070"},
  {"id":522,"Name":"Thaine","StreetAddress":"7 Havey Place","Zip":18231,"EmailAddress":"tmoakeseh@intel.com","PhoneNumber":"503-423-6753"},
  {"id":523,"Name":"Albertina","StreetAddress":"57410 Bashford Center","Zip":14715,"EmailAddress":"arottgersei@cbsnews.com","PhoneNumber":"178-310-1104"},
  {"id":524,"Name":"Cleve","StreetAddress":"24 Lakewood Street","Zip":30220,"EmailAddress":"celwardej@google.com.br","PhoneNumber":"637-888-8659"},
  {"id":525,"Name":"Anselma","StreetAddress":"1 Victoria Road","Zip":44114,"EmailAddress":"adennisek@ebay.co.uk","PhoneNumber":"660-324-1362"},
  {"id":526,"Name":"Stephanie","StreetAddress":"05944 Oak Hill","Zip":44308,"EmailAddress":"svarrenel@spotify.com","PhoneNumber":"900-366-8225"},
  {"id":527,"Name":"Edmon","StreetAddress":"95 Utah Lane","Zip":41739,"EmailAddress":"evittelem@msn.com","PhoneNumber":"281-423-4231"},
  {"id":528,"Name":"Mycah","StreetAddress":"14235 Granby Plaza","Zip":49284,"EmailAddress":"mrenfielden@artisteer.com","PhoneNumber":"133-947-3196"},
  {"id":529,"Name":"Maiga","StreetAddress":"8 Claremont Circle","Zip":30799,"EmailAddress":"mpinillaeo@constantcontact.com","PhoneNumber":"879-130-0000"},
  {"id":530,"Name":"Townsend","StreetAddress":"3143 Ludington Way","Zip":35816,"EmailAddress":"tshilitoep@psu.edu","PhoneNumber":"113-226-5119"},
  {"id":531,"Name":"Halsey","StreetAddress":"844 Lighthouse Bay Center","Zip":11707,"EmailAddress":"hhackeltoneq@newyorker.com","PhoneNumber":"503-349-9843"},
  {"id":532,"Name":"Konstantine","StreetAddress":"6552 Scofield Parkway","Zip":33102,"EmailAddress":"kbindinger@google.com.br","PhoneNumber":"336-845-6387"},
  {"id":533,"Name":"Izaak","StreetAddress":"4 Lukken Plaza","Zip":48713,"EmailAddress":"ijedrachowiczes@apple.com","PhoneNumber":"445-893-2865"},
  {"id":534,"Name":"Ludvig","StreetAddress":"4144 Birchwood Road","Zip":49982,"EmailAddress":"lleedet@mozilla.org","PhoneNumber":"882-967-8390"},
  {"id":535,"Name":"Elena","StreetAddress":"9445 Packers Plaza","Zip":44990,"EmailAddress":"eeimeu@columbia.edu","PhoneNumber":"349-237-1194"},
  {"id":536,"Name":"Sindee","StreetAddress":"0635 2nd Park","Zip":21125,"EmailAddress":"smilsapev@bluehost.com","PhoneNumber":"796-769-4885"},
  {"id":537,"Name":"Bruno","StreetAddress":"6359 Express Hill","Zip":20552,"EmailAddress":"bshawdforthew@accuweather.com","PhoneNumber":"419-280-2050"},
  {"id":538,"Name":"Ody","StreetAddress":"1097 Waubesa Junction","Zip":33183,"EmailAddress":"ohaslegraveex@freewebs.com","PhoneNumber":"343-708-2652"},
  {"id":539,"Name":"Chaim","StreetAddress":"25023 Fulton Plaza","Zip":45650,"EmailAddress":"cyeabsleyey@aboutads.info","PhoneNumber":"890-185-6069"},
  {"id":540,"Name":"Montgomery","StreetAddress":"8 Corscot Road","Zip":14532,"EmailAddress":"mnicholez@mac.com","PhoneNumber":"595-976-6384"},
  {"id":541,"Name":"Sheelagh","StreetAddress":"0103 Butterfield Road","Zip":16354,"EmailAddress":"sfordf0@bandcamp.com","PhoneNumber":"532-228-8467"},
  {"id":542,"Name":"Gabbie","StreetAddress":"846 Crescent Oaks Park","Zip":27340,"EmailAddress":"gsaladinef1@springer.com","PhoneNumber":"640-964-0800"},
  {"id":543,"Name":"Ruperto","StreetAddress":"44 Iowa Place","Zip":19488,"EmailAddress":"rstockf2@goo.ne.jp","PhoneNumber":"386-221-3024"},
  {"id":544,"Name":"Bill","StreetAddress":"96 Golden Leaf Center","Zip":13726,"EmailAddress":"blarkingsf3@economist.com","PhoneNumber":"687-118-2456"},
  {"id":545,"Name":"Bryn","StreetAddress":"5 Grim Park","Zip":38408,"EmailAddress":"boheffernanf4@360.cn","PhoneNumber":"214-603-7824"},
  {"id":546,"Name":"Edouard","StreetAddress":"74 Fuller Pass","Zip":11093,"EmailAddress":"eleatherf5@dailymotion.com","PhoneNumber":"787-233-7124"},
  {"id":547,"Name":"Prudence","StreetAddress":"8 Jana Lane","Zip":48257,"EmailAddress":"pbinyonf6@cnet.com","PhoneNumber":"943-834-8759"},
  {"id":548,"Name":"Marysa","StreetAddress":"27 Corry Alley","Zip":44423,"EmailAddress":"msenecauxf7@geocities.jp","PhoneNumber":"680-729-7508"},
  {"id":549,"Name":"Isac","StreetAddress":"5 Luster Avenue","Zip":46512,"EmailAddress":"iheysf8@acquirethisname.com","PhoneNumber":"755-152-8390"},
  {"id":550,"Name":"Rollin","StreetAddress":"5 Fallview Circle","Zip":26245,"EmailAddress":"roxtabyf9@fc2.com","PhoneNumber":"262-420-3277"},
  {"id":551,"Name":"Hanan","StreetAddress":"58 Garrison Crossing","Zip":27857,"EmailAddress":"hgeroldinifa@discuz.net","PhoneNumber":"593-820-7168"},
  {"id":552,"Name":"Carena","StreetAddress":"727 Autumn Leaf Court","Zip":31279,"EmailAddress":"cblakesleyfb@umich.edu","PhoneNumber":"765-594-6800"},
  {"id":553,"Name":"Riordan","StreetAddress":"2640 Stephen Drive","Zip":36963,"EmailAddress":"rvibertfc@uiuc.edu","PhoneNumber":"124-654-0552"},
  {"id":554,"Name":"Quintana","StreetAddress":"468 Aberg Plaza","Zip":30526,"EmailAddress":"qjagiellofd@state.gov","PhoneNumber":"162-570-2632"},
  {"id":555,"Name":"Friedrich","StreetAddress":"89375 Reinke Crossing","Zip":48997,"EmailAddress":"fsherlandfe@europa.eu","PhoneNumber":"437-743-6421"},
  {"id":556,"Name":"Thane","StreetAddress":"21 Bonner Lane","Zip":43939,"EmailAddress":"twadwellff@cyberchimps.com","PhoneNumber":"229-722-2761"},
  {"id":557,"Name":"Harbert","StreetAddress":"47 Porter Circle","Zip":18085,"EmailAddress":"hketchfg@apple.com","PhoneNumber":"675-603-5006"},
  {"id":558,"Name":"Dolly","StreetAddress":"24297 Rowland Crossing","Zip":26797,"EmailAddress":"dstoaksfh@nature.com","PhoneNumber":"696-882-8447"},
  {"id":559,"Name":"Silvan","StreetAddress":"7 Center Circle","Zip":12939,"EmailAddress":"sgookefi@gizmodo.com","PhoneNumber":"721-222-8598"},
  {"id":560,"Name":"Lyndell","StreetAddress":"01 Rusk Street","Zip":25894,"EmailAddress":"llumfj@ycombinator.com","PhoneNumber":"419-727-5130"},
  {"id":561,"Name":"Abey","StreetAddress":"14 Crescent Oaks Avenue","Zip":11647,"EmailAddress":"afilippuccifk@harvard.edu","PhoneNumber":"792-715-8930"},
  {"id":562,"Name":"Aldric","StreetAddress":"371 Stephen Place","Zip":10289,"EmailAddress":"abernardinofl@ocn.ne.jp","PhoneNumber":"144-752-1683"},
  {"id":563,"Name":"Tabby","StreetAddress":"45 Lakeland Parkway","Zip":36477,"EmailAddress":"tpfefflefm@mail.ru","PhoneNumber":"941-528-3580"},
  {"id":564,"Name":"Kamilah","StreetAddress":"25 Karstens Pass","Zip":20840,"EmailAddress":"kgeydonfn@nifty.com","PhoneNumber":"806-194-7453"},
  {"id":565,"Name":"Olly","StreetAddress":"59141 Summerview Road","Zip":23606,"EmailAddress":"oscullyfo@hud.gov","PhoneNumber":"252-428-1015"},
  {"id":566,"Name":"Lenci","StreetAddress":"60 Hermina Junction","Zip":27507,"EmailAddress":"lbarnsonfp@woothemes.com","PhoneNumber":"869-315-1001"},
  {"id":567,"Name":"Oralla","StreetAddress":"7 Claremont Street","Zip":25836,"EmailAddress":"opetrfq@abc.net.au","PhoneNumber":"443-832-9568"},
  {"id":568,"Name":"Ronald","StreetAddress":"4 2nd Way","Zip":21731,"EmailAddress":"rmullanyfr@pinterest.com","PhoneNumber":"149-745-7213"},
  {"id":569,"Name":"Jenelle","StreetAddress":"8 Lukken Hill","Zip":26900,"EmailAddress":"jescreetfs@weather.com","PhoneNumber":"316-940-7153"},
  {"id":570,"Name":"Minda","StreetAddress":"20 Melrose Way","Zip":33568,"EmailAddress":"mfersonft@reuters.com","PhoneNumber":"645-854-5069"},
  {"id":571,"Name":"Beaufort","StreetAddress":"418 International Road","Zip":48579,"EmailAddress":"bdorsetfu@tmall.com","PhoneNumber":"356-153-3475"},
  {"id":572,"Name":"Mignon","StreetAddress":"289 Maywood Way","Zip":48526,"EmailAddress":"mamangerfv@tumblr.com","PhoneNumber":"831-671-6232"},
  {"id":573,"Name":"Torrie","StreetAddress":"01526 Washington Court","Zip":16755,"EmailAddress":"thankardfw@alexa.com","PhoneNumber":"946-194-6852"},
  {"id":574,"Name":"Dale","StreetAddress":"44 Sauthoff Street","Zip":32669,"EmailAddress":"dfootefx@cornell.edu","PhoneNumber":"149-377-2365"},
  {"id":575,"Name":"Ailina","StreetAddress":"195 Warrior Parkway","Zip":29507,"EmailAddress":"aapfelfy@apache.org","PhoneNumber":"925-664-0333"},
  {"id":576,"Name":"Sandy","StreetAddress":"22 Farwell Trail","Zip":25059,"EmailAddress":"sclubleyfz@hhs.gov","PhoneNumber":"411-657-8081"},
  {"id":577,"Name":"Andrew","StreetAddress":"486 Northport Terrace","Zip":30394,"EmailAddress":"agilliesg0@mapy.cz","PhoneNumber":"489-422-2039"},
  {"id":578,"Name":"Alvin","StreetAddress":"202 Scofield Place","Zip":24808,"EmailAddress":"adohrg1@shutterfly.com","PhoneNumber":"514-975-9822"},
  {"id":579,"Name":"Ora","StreetAddress":"85681 Ridge Oak Pass","Zip":38781,"EmailAddress":"obrazenorg2@soup.io","PhoneNumber":"206-858-9181"},
  {"id":580,"Name":"Kerrin","StreetAddress":"0316 Browning Center","Zip":31633,"EmailAddress":"kabbottsg3@ustream.tv","PhoneNumber":"245-177-9639"},
  {"id":581,"Name":"Roma","StreetAddress":"6 Charing Cross Terrace","Zip":23670,"EmailAddress":"rallettg4@themeforest.net","PhoneNumber":"540-828-4920"},
  {"id":582,"Name":"Gertrud","StreetAddress":"68 Kenwood Lane","Zip":43039,"EmailAddress":"gramelotg5@illinois.edu","PhoneNumber":"179-865-9573"},
  {"id":583,"Name":"Garey","StreetAddress":"025 Cardinal Court","Zip":46314,"EmailAddress":"garisg6@alexa.com","PhoneNumber":"204-786-9782"},
  {"id":584,"Name":"Aurthur","StreetAddress":"1039 Bartelt Center","Zip":39915,"EmailAddress":"ahousegog7@cnn.com","PhoneNumber":"508-995-3334"},
  {"id":585,"Name":"Sargent","StreetAddress":"68 Golf Course Court","Zip":26555,"EmailAddress":"swemesg8@yahoo.co.jp","PhoneNumber":"857-624-1082"},
  {"id":586,"Name":"Sonnie","StreetAddress":"6 Cody Drive","Zip":47762,"EmailAddress":"sgooddayg9@bigcartel.com","PhoneNumber":"179-862-0653"},
  {"id":587,"Name":"Noam","StreetAddress":"67543 Mariners Cove Center","Zip":11359,"EmailAddress":"npyffega@seattletimes.com","PhoneNumber":"546-743-0867"},
  {"id":588,"Name":"Zaria","StreetAddress":"35 Marcy Alley","Zip":13444,"EmailAddress":"zscarisbrickgb@g.co","PhoneNumber":"587-826-1714"},
  {"id":589,"Name":"Bethany","StreetAddress":"66804 Park Meadow Hill","Zip":20686,"EmailAddress":"bgokesgc@devhub.com","PhoneNumber":"871-130-5145"},
  {"id":590,"Name":"Wallace","StreetAddress":"91650 2nd Trail","Zip":40198,"EmailAddress":"wtamblyngd@cpanel.net","PhoneNumber":"867-904-4877"},
  {"id":591,"Name":"Jed","StreetAddress":"4686 Pleasure Way","Zip":44068,"EmailAddress":"jmccarlichge@umn.edu","PhoneNumber":"187-277-2574"},
  {"id":592,"Name":"Cora","StreetAddress":"167 Hansons Court","Zip":48886,"EmailAddress":"ctruggiangf@wikipedia.org","PhoneNumber":"418-900-9363"},
  {"id":593,"Name":"Rafferty","StreetAddress":"813 Trailsway Trail","Zip":12473,"EmailAddress":"rspearettgg@over-blog.com","PhoneNumber":"337-208-3883"},
  {"id":594,"Name":"Carmelina","StreetAddress":"08 Sugar Court","Zip":48197,"EmailAddress":"choldallgh@wix.com","PhoneNumber":"947-596-8081"},
  {"id":595,"Name":"Linc","StreetAddress":"4801 Ridge Oak Plaza","Zip":21666,"EmailAddress":"lshorttgi@shinystat.com","PhoneNumber":"424-825-2813"},
  {"id":596,"Name":"Prescott","StreetAddress":"1904 Bartelt Hill","Zip":38035,"EmailAddress":"pbollandsgj@archive.org","PhoneNumber":"420-341-6854"},
  {"id":597,"Name":"Lexy","StreetAddress":"24216 Daystar Parkway","Zip":24238,"EmailAddress":"lfarbrothergk@webnode.com","PhoneNumber":"484-278-9790"},
  {"id":598,"Name":"Adorne","StreetAddress":"37913 Vidon Center","Zip":15331,"EmailAddress":"aboonegl@hud.gov","PhoneNumber":"157-496-0362"},
  {"id":599,"Name":"Gerhardine","StreetAddress":"378 Melby Alley","Zip":47862,"EmailAddress":"gpiddockgm@sphinn.com","PhoneNumber":"107-607-8292"},
  {"id":600,"Name":"Wye","StreetAddress":"1 Vahlen Trail","Zip":48157,"EmailAddress":"wseysgn@elegantthemes.com","PhoneNumber":"770-230-3820"},
  {"id":601,"Name":"Morna","StreetAddress":"3 Fieldstone Park","Zip":48374,"EmailAddress":"mdurstongo@icq.com","PhoneNumber":"915-913-7335"},
  {"id":602,"Name":"Ardyth","StreetAddress":"9 Meadow Vale Lane","Zip":32907,"EmailAddress":"asmithgp@bluehost.com","PhoneNumber":"216-484-7953"},
  {"id":603,"Name":"Wendell","StreetAddress":"026 Dovetail Circle","Zip":38391,"EmailAddress":"wsawyergq@sourceforge.net","PhoneNumber":"963-791-7018"},
  {"id":604,"Name":"Rayna","StreetAddress":"87554 Di Loreto Alley","Zip":11829,"EmailAddress":"rferrygr@stanford.edu","PhoneNumber":"270-191-6069"},
  {"id":605,"Name":"Kellby","StreetAddress":"57443 Monterey Street","Zip":19557,"EmailAddress":"kfairfootgs@networksolutions.com","PhoneNumber":"828-147-5321"},
  {"id":606,"Name":"Beryl","StreetAddress":"2922 Mosinee Alley","Zip":13431,"EmailAddress":"bdobrowolskigt@hubpages.com","PhoneNumber":"638-259-4182"},
  {"id":607,"Name":"Betty","StreetAddress":"2876 Farmco Point","Zip":25755,"EmailAddress":"blowingsgu@dot.gov","PhoneNumber":"590-159-5930"},
  {"id":608,"Name":"Gussy","StreetAddress":"39 Saint Paul Circle","Zip":22490,"EmailAddress":"gbransomgv@angelfire.com","PhoneNumber":"283-520-5443"},
  {"id":609,"Name":"Chandal","StreetAddress":"2113 Meadow Ridge Plaza","Zip":36163,"EmailAddress":"cprinnegw@senate.gov","PhoneNumber":"180-286-2210"},
  {"id":610,"Name":"Giacomo","StreetAddress":"9 Kingsford Way","Zip":44942,"EmailAddress":"gcaressgx@cpanel.net","PhoneNumber":"816-538-6052"},
  {"id":611,"Name":"Pete","StreetAddress":"89 Main Crossing","Zip":39883,"EmailAddress":"pdyegy@cocolog-nifty.com","PhoneNumber":"740-791-5861"},
  {"id":612,"Name":"Chuck","StreetAddress":"6 Walton Junction","Zip":45981,"EmailAddress":"cmatuskiewiczgz@dion.ne.jp","PhoneNumber":"410-856-4719"},
  {"id":613,"Name":"Dori","StreetAddress":"61 Cascade Plaza","Zip":22789,"EmailAddress":"dshakspeareh0@delicious.com","PhoneNumber":"969-338-3333"},
  {"id":614,"Name":"Charmaine","StreetAddress":"8391 Esch Parkway","Zip":24362,"EmailAddress":"cgresserh1@nbcnews.com","PhoneNumber":"333-539-7508"},
  {"id":615,"Name":"Evelin","StreetAddress":"01309 Tomscot Parkway","Zip":42118,"EmailAddress":"egaynesh2@accuweather.com","PhoneNumber":"291-277-5669"},
  {"id":616,"Name":"Clement","StreetAddress":"5685 Daystar Place","Zip":43078,"EmailAddress":"cmccoishh3@netscape.com","PhoneNumber":"488-552-5272"},
  {"id":617,"Name":"Judie","StreetAddress":"40 Tony Alley","Zip":42421,"EmailAddress":"jauberth4@blogs.com","PhoneNumber":"161-242-6336"},
  {"id":618,"Name":"Dannie","StreetAddress":"7225 Myrtle Pass","Zip":38582,"EmailAddress":"dbenedikth5@examiner.com","PhoneNumber":"741-545-5986"},
  {"id":619,"Name":"Grier","StreetAddress":"45791 Banding Parkway","Zip":14535,"EmailAddress":"gvanveldeh6@parallels.com","PhoneNumber":"428-426-7582"},
  {"id":620,"Name":"Brenden","StreetAddress":"2 Sutherland Terrace","Zip":16914,"EmailAddress":"blaxtonh7@google.ru","PhoneNumber":"347-945-9744"},
  {"id":621,"Name":"Luigi","StreetAddress":"7453 Killdeer Parkway","Zip":30660,"EmailAddress":"lsmithenh8@tamu.edu","PhoneNumber":"126-368-4341"},
  {"id":622,"Name":"Laraine","StreetAddress":"4 Moulton Avenue","Zip":31592,"EmailAddress":"lmabsonh9@surveymonkey.com","PhoneNumber":"322-988-8064"},
  {"id":623,"Name":"Corie","StreetAddress":"8 Summit Hill","Zip":15260,"EmailAddress":"ccleghornha@qq.com","PhoneNumber":"844-619-3959"},
  {"id":624,"Name":"Rochelle","StreetAddress":"5992 Springs Hill","Zip":28895,"EmailAddress":"rcruxhb@cnet.com","PhoneNumber":"256-879-6223"},
  {"id":625,"Name":"Milo","StreetAddress":"4 Havey Crossing","Zip":42001,"EmailAddress":"mmedewayhc@deviantart.com","PhoneNumber":"372-623-2534"},
  {"id":626,"Name":"Berthe","StreetAddress":"886 Crest Line Circle","Zip":12124,"EmailAddress":"boxtebyhd@elpais.com","PhoneNumber":"104-801-8999"},
  {"id":627,"Name":"Eal","StreetAddress":"8290 Schmedeman Plaza","Zip":23181,"EmailAddress":"ebudikhe@elpais.com","PhoneNumber":"928-198-7726"},
  {"id":628,"Name":"Kippy","StreetAddress":"51 Mosinee Terrace","Zip":41983,"EmailAddress":"khourahanhf@latimes.com","PhoneNumber":"876-343-5049"},
  {"id":629,"Name":"Brigit","StreetAddress":"5028 Sullivan Alley","Zip":36822,"EmailAddress":"bmatlockhg@github.com","PhoneNumber":"603-737-6553"},
  {"id":630,"Name":"Borg","StreetAddress":"30889 Continental Center","Zip":44441,"EmailAddress":"bbuckleighhh@meetup.com","PhoneNumber":"480-639-8066"},
  {"id":631,"Name":"Ilaire","StreetAddress":"3 Declaration Junction","Zip":28495,"EmailAddress":"iyardleyhi@chicagotribune.com","PhoneNumber":"726-690-0332"},
  {"id":632,"Name":"Wendi","StreetAddress":"565 Union Hill","Zip":38498,"EmailAddress":"wjosipovichj@dyndns.org","PhoneNumber":"451-151-1160"},
  {"id":633,"Name":"Boycie","StreetAddress":"1983 Spohn Plaza","Zip":16771,"EmailAddress":"bselcraighk@hibu.com","PhoneNumber":"344-672-9428"},
  {"id":634,"Name":"Leo","StreetAddress":"0 Forest Run Center","Zip":36144,"EmailAddress":"ldyhousehl@altervista.org","PhoneNumber":"252-404-7082"},
  {"id":635,"Name":"Randolph","StreetAddress":"7 Hauk Parkway","Zip":40513,"EmailAddress":"rpugsleyhm@msu.edu","PhoneNumber":"719-670-5606"},
  {"id":636,"Name":"Della","StreetAddress":"3995 Cardinal Crossing","Zip":29820,"EmailAddress":"dbroadburyhn@google.com.au","PhoneNumber":"862-476-7404"},
  {"id":637,"Name":"Zedekiah","StreetAddress":"26611 Luster Street","Zip":16753,"EmailAddress":"zlukasenho@artisteer.com","PhoneNumber":"135-700-5241"},
  {"id":638,"Name":"Leora","StreetAddress":"1 Kenwood Trail","Zip":11922,"EmailAddress":"lnorcockhp@a8.net","PhoneNumber":"755-548-6088"},
  {"id":639,"Name":"Genovera","StreetAddress":"431 Annamark Center","Zip":34252,"EmailAddress":"gkezourechq@bloomberg.com","PhoneNumber":"580-407-3634"},
  {"id":640,"Name":"Diane","StreetAddress":"1409 Kim Drive","Zip":47152,"EmailAddress":"dmatteuzzihr@yellowbook.com","PhoneNumber":"204-516-5278"},
  {"id":641,"Name":"Minna","StreetAddress":"17 Texas Lane","Zip":16325,"EmailAddress":"mtearneyhs@etsy.com","PhoneNumber":"904-176-4006"},
  {"id":642,"Name":"Montgomery","StreetAddress":"745 Dexter Crossing","Zip":32433,"EmailAddress":"mmordauntht@bravesites.com","PhoneNumber":"119-646-4182"},
  {"id":643,"Name":"Reece","StreetAddress":"29609 Hoard Court","Zip":46959,"EmailAddress":"rscoldinghu@shutterfly.com","PhoneNumber":"962-354-4164"},
  {"id":644,"Name":"Sol","StreetAddress":"83526 Chinook Drive","Zip":46558,"EmailAddress":"smaceveleyhv@pbs.org","PhoneNumber":"628-603-3728"},
  {"id":645,"Name":"Roseanna","StreetAddress":"92585 Fordem Road","Zip":33933,"EmailAddress":"rgeytonhw@sciencedaily.com","PhoneNumber":"538-402-5419"},
  {"id":646,"Name":"Kristien","StreetAddress":"4 Sunnyside Pass","Zip":49854,"EmailAddress":"kbunchhx@biglobe.ne.jp","PhoneNumber":"422-619-9856"},
  {"id":647,"Name":"Hastings","StreetAddress":"99018 Everett Lane","Zip":10861,"EmailAddress":"hspurdenshy@hc360.com","PhoneNumber":"875-693-7488"},
  {"id":648,"Name":"Chrisse","StreetAddress":"6 Acker Street","Zip":43768,"EmailAddress":"crockwellhz@youku.com","PhoneNumber":"132-742-9701"},
  {"id":649,"Name":"Hilly","StreetAddress":"56710 Bonner Pass","Zip":46274,"EmailAddress":"hleggesi0@hugedomains.com","PhoneNumber":"905-701-2721"},
  {"id":650,"Name":"Rollo","StreetAddress":"6125 Farmco Parkway","Zip":39968,"EmailAddress":"rtyasi1@ibm.com","PhoneNumber":"404-716-2047"},
  {"id":651,"Name":"Sean","StreetAddress":"055 Westport Road","Zip":29877,"EmailAddress":"sjenneyi2@bravesites.com","PhoneNumber":"174-399-7117"},
  {"id":652,"Name":"Corabelle","StreetAddress":"56 Oxford Circle","Zip":34389,"EmailAddress":"ckrishtopaittisi3@hatena.ne.jp","PhoneNumber":"344-782-1915"},
  {"id":653,"Name":"Uriah","StreetAddress":"8343 Hauk Circle","Zip":26478,"EmailAddress":"uschrievesi4@google.es","PhoneNumber":"394-963-7841"},
  {"id":654,"Name":"Shayla","StreetAddress":"98263 Jenna Crossing","Zip":37206,"EmailAddress":"szavattarii5@businessweek.com","PhoneNumber":"365-423-3509"},
  {"id":655,"Name":"Elenore","StreetAddress":"71662 Namekagon Plaza","Zip":38615,"EmailAddress":"esyalvesteri6@statcounter.com","PhoneNumber":"798-421-2254"},
  {"id":656,"Name":"Lynn","StreetAddress":"97499 Village Park","Zip":16982,"EmailAddress":"lbrittlebanki7@spotify.com","PhoneNumber":"273-198-4986"},
  {"id":657,"Name":"Corenda","StreetAddress":"65181 Pawling Crossing","Zip":24731,"EmailAddress":"cmccarryi8@msu.edu","PhoneNumber":"888-653-8596"},
  {"id":658,"Name":"Anabelle","StreetAddress":"25 Warrior Center","Zip":28989,"EmailAddress":"alydfordi9@abc.net.au","PhoneNumber":"117-309-9203"},
  {"id":659,"Name":"Caz","StreetAddress":"4 Nelson Crossing","Zip":20009,"EmailAddress":"cpiersonia@istockphoto.com","PhoneNumber":"559-228-2605"},
  {"id":660,"Name":"Maison","StreetAddress":"3827 Lake View Way","Zip":25918,"EmailAddress":"mhugeninib@blinklist.com","PhoneNumber":"914-542-6070"},
  {"id":661,"Name":"Gunter","StreetAddress":"316 Myrtle Way","Zip":30310,"EmailAddress":"ggerholzic@macromedia.com","PhoneNumber":"573-966-8423"},
  {"id":662,"Name":"Felix","StreetAddress":"916 Mallory Trail","Zip":25039,"EmailAddress":"fbrugemannid@mashable.com","PhoneNumber":"131-758-3593"},
  {"id":663,"Name":"Kariotta","StreetAddress":"4808 Lillian Court","Zip":15154,"EmailAddress":"klevenie@amazon.com","PhoneNumber":"139-218-7539"},
  {"id":664,"Name":"Mitzi","StreetAddress":"972 Acker Center","Zip":28436,"EmailAddress":"mantoniatif@jalbum.net","PhoneNumber":"163-801-3111"},
  {"id":665,"Name":"Nichole","StreetAddress":"49 Boyd Street","Zip":32538,"EmailAddress":"nbillingsig@addtoany.com","PhoneNumber":"828-721-4540"},
  {"id":666,"Name":"Ludovico","StreetAddress":"71 Paget Lane","Zip":11718,"EmailAddress":"lhucksterih@yellowpages.com","PhoneNumber":"510-670-0152"},
  {"id":667,"Name":"Clayson","StreetAddress":"741 Stone Corner Junction","Zip":11680,"EmailAddress":"ccomelloii@amazonaws.com","PhoneNumber":"133-797-9110"},
  {"id":668,"Name":"Ethyl","StreetAddress":"355 Main Alley","Zip":18844,"EmailAddress":"enardrupij@de.vu","PhoneNumber":"683-146-0354"},
  {"id":669,"Name":"Winfield","StreetAddress":"00294 Mockingbird Terrace","Zip":25277,"EmailAddress":"wrobelik@nba.com","PhoneNumber":"966-178-2778"},
  {"id":670,"Name":"Park","StreetAddress":"92 East Plaza","Zip":28194,"EmailAddress":"pmcteagueil@tuttocitta.it","PhoneNumber":"288-167-6720"},
  {"id":671,"Name":"Adrea","StreetAddress":"671 Hansons Place","Zip":36903,"EmailAddress":"arizzottoim@t-online.de","PhoneNumber":"481-841-6044"},
  {"id":672,"Name":"Mathias","StreetAddress":"76411 Hintze Junction","Zip":30402,"EmailAddress":"mdemitrisin@xing.com","PhoneNumber":"981-880-7656"},
  {"id":673,"Name":"Wylma","StreetAddress":"8397 Cascade Junction","Zip":26113,"EmailAddress":"walastairio@comsenz.com","PhoneNumber":"495-359-1509"},
  {"id":674,"Name":"Candace","StreetAddress":"91480 Derek Way","Zip":36304,"EmailAddress":"cletticeip@nba.com","PhoneNumber":"309-299-5203"},
  {"id":675,"Name":"Georgiana","StreetAddress":"1748 Rieder Street","Zip":11327,"EmailAddress":"gcosgroveiq@tripadvisor.com","PhoneNumber":"995-103-6625"},
  {"id":676,"Name":"Elsa","StreetAddress":"4031 Novick Parkway","Zip":24322,"EmailAddress":"ewellwoodir@usa.gov","PhoneNumber":"821-960-7206"},
  {"id":677,"Name":"Boote","StreetAddress":"385 Mcguire Parkway","Zip":44368,"EmailAddress":"bgierathsis@illinois.edu","PhoneNumber":"428-126-5370"},
  {"id":678,"Name":"Petronille","StreetAddress":"3852 Dwight Park","Zip":31948,"EmailAddress":"pcawsbyit@dropbox.com","PhoneNumber":"261-558-2247"},
  {"id":679,"Name":"Darb","StreetAddress":"747 Dapin Court","Zip":38129,"EmailAddress":"dbichardiu@timesonline.co.uk","PhoneNumber":"579-513-7388"},
  {"id":680,"Name":"Marni","StreetAddress":"5243 Dayton Center","Zip":49010,"EmailAddress":"mgarbettiv@slashdot.org","PhoneNumber":"352-668-6290"},
  {"id":681,"Name":"Thia","StreetAddress":"419 Victoria Center","Zip":46390,"EmailAddress":"thallattiw@amazon.de","PhoneNumber":"984-675-9040"},
  {"id":682,"Name":"Mitzi","StreetAddress":"2767 Lake View Center","Zip":34801,"EmailAddress":"mpumphreysix@ft.com","PhoneNumber":"635-271-4684"},
  {"id":683,"Name":"Hazel","StreetAddress":"7725 Donald Junction","Zip":37454,"EmailAddress":"hmustilliy@exblog.jp","PhoneNumber":"249-263-1123"},
  {"id":684,"Name":"Pat","StreetAddress":"6 Drewry Drive","Zip":33389,"EmailAddress":"pblackbroughiz@php.net","PhoneNumber":"838-158-5453"},
  {"id":685,"Name":"Audra","StreetAddress":"53883 Myrtle Hill","Zip":34147,"EmailAddress":"asimonaitisj0@sitemeter.com","PhoneNumber":"517-259-0739"},
  {"id":686,"Name":"Dannie","StreetAddress":"406 Blackbird Terrace","Zip":17010,"EmailAddress":"dcausbeyj1@imdb.com","PhoneNumber":"741-158-2559"},
  {"id":687,"Name":"Allsun","StreetAddress":"673 Southridge Park","Zip":46732,"EmailAddress":"alammertzj2@google.de","PhoneNumber":"938-614-1014"},
  {"id":688,"Name":"Richardo","StreetAddress":"3449 Pennsylvania Court","Zip":29652,"EmailAddress":"rwallacej3@goodreads.com","PhoneNumber":"356-446-0226"},
  {"id":689,"Name":"Alden","StreetAddress":"720 Pawling Way","Zip":12319,"EmailAddress":"aortonj4@phpbb.com","PhoneNumber":"205-698-4559"},
  {"id":690,"Name":"Garwood","StreetAddress":"96769 Stuart Avenue","Zip":29932,"EmailAddress":"gcrowthj5@timesonline.co.uk","PhoneNumber":"247-306-1835"},
  {"id":691,"Name":"Frasier","StreetAddress":"2344 Ramsey Trail","Zip":10460,"EmailAddress":"fvanderkruijsj6@home.pl","PhoneNumber":"199-476-9781"},
  {"id":692,"Name":"Ardisj","StreetAddress":"74 Ryan Drive","Zip":15192,"EmailAddress":"alambdonj7@phpbb.com","PhoneNumber":"131-672-2804"},
  {"id":693,"Name":"Dyana","StreetAddress":"77 Fieldstone Trail","Zip":47771,"EmailAddress":"dbarzenj8@mashable.com","PhoneNumber":"312-177-6087"},
  {"id":694,"Name":"Maximilianus","StreetAddress":"3217 Ridgeview Point","Zip":47462,"EmailAddress":"mloinesj9@dyndns.org","PhoneNumber":"530-956-0954"},
  {"id":695,"Name":"Rayshell","StreetAddress":"5 Mallory Court","Zip":34686,"EmailAddress":"rsimnerja@independent.co.uk","PhoneNumber":"891-571-2144"},
  {"id":696,"Name":"Corrie","StreetAddress":"67988 Mariners Cove Crossing","Zip":15014,"EmailAddress":"cmacdirmidjb@youtu.be","PhoneNumber":"838-781-1528"},
  {"id":697,"Name":"Bartholomew","StreetAddress":"48747 Fuller Crossing","Zip":45753,"EmailAddress":"bbucklesjc@state.gov","PhoneNumber":"730-184-4022"},
  {"id":698,"Name":"Tom","StreetAddress":"56 Petterle Place","Zip":32813,"EmailAddress":"tbatropjd@latimes.com","PhoneNumber":"411-717-5622"},
  {"id":699,"Name":"Salvador","StreetAddress":"1358 Holmberg Park","Zip":39966,"EmailAddress":"ssinyardje@usa.gov","PhoneNumber":"948-972-7351"},
  {"id":700,"Name":"Hilly","StreetAddress":"82 Laurel Plaza","Zip":34887,"EmailAddress":"hmacevillyjf@vinaora.com","PhoneNumber":"155-671-5474"},
  {"id":701,"Name":"Kelila","StreetAddress":"782 Kedzie Junction","Zip":16566,"EmailAddress":"kgillespeyjg@icq.com","PhoneNumber":"983-655-9436"},
  {"id":702,"Name":"Ajay","StreetAddress":"1041 Melby Court","Zip":24036,"EmailAddress":"athrasherjh@weather.com","PhoneNumber":"821-926-2620"},
  {"id":703,"Name":"Zebedee","StreetAddress":"2 Mcbride Parkway","Zip":28640,"EmailAddress":"zmarinerji@webmd.com","PhoneNumber":"951-901-8765"},
  {"id":704,"Name":"Panchito","StreetAddress":"4 Schurz Court","Zip":49376,"EmailAddress":"pfarrajj@youtu.be","PhoneNumber":"980-672-5186"},
  {"id":705,"Name":"Rosalynd","StreetAddress":"657 Fuller Trail","Zip":45487,"EmailAddress":"rjerrimjk@wikia.com","PhoneNumber":"773-543-6001"},
  {"id":706,"Name":"Harvey","StreetAddress":"9520 Golf View Avenue","Zip":11752,"EmailAddress":"hcuretonjl@toplist.cz","PhoneNumber":"203-402-9285"},
  {"id":707,"Name":"Lukas","StreetAddress":"8 Maryland Crossing","Zip":28898,"EmailAddress":"lcornjm@acquirethisname.com","PhoneNumber":"250-596-6014"},
  {"id":708,"Name":"Hasty","StreetAddress":"5 Derek Center","Zip":43498,"EmailAddress":"hpicottjn@g.co","PhoneNumber":"880-711-7763"},
  {"id":709,"Name":"Casandra","StreetAddress":"604 Pearson Crossing","Zip":22794,"EmailAddress":"cyurkovjo@dmoz.org","PhoneNumber":"505-596-1467"},
  {"id":710,"Name":"Vidovik","StreetAddress":"11869 Iowa Lane","Zip":37634,"EmailAddress":"vventurajp@youtube.com","PhoneNumber":"511-911-1135"},
  {"id":711,"Name":"Ariana","StreetAddress":"1919 Hoard Street","Zip":10375,"EmailAddress":"abarthelemyjq@about.me","PhoneNumber":"959-990-8557"},
  {"id":712,"Name":"Willetta","StreetAddress":"72608 Arapahoe Junction","Zip":49070,"EmailAddress":"wiremongerjr@imdb.com","PhoneNumber":"533-140-0780"},
  {"id":713,"Name":"Mariel","StreetAddress":"6232 Tennessee Street","Zip":48476,"EmailAddress":"mkirbyjs@cdc.gov","PhoneNumber":"727-364-1005"},
  {"id":714,"Name":"Rafael","StreetAddress":"3068 Anthes Terrace","Zip":25029,"EmailAddress":"rleybornejt@noaa.gov","PhoneNumber":"928-204-0649"},
  {"id":715,"Name":"Rosabella","StreetAddress":"16136 Sutteridge Pass","Zip":23791,"EmailAddress":"rgastickeju@homestead.com","PhoneNumber":"723-859-4988"},
  {"id":716,"Name":"Gawain","StreetAddress":"47842 Victoria Alley","Zip":19751,"EmailAddress":"gdenyakinjv@hubpages.com","PhoneNumber":"454-475-6672"},
  {"id":717,"Name":"Frants","StreetAddress":"39 International Parkway","Zip":46693,"EmailAddress":"fbutchersjw@dot.gov","PhoneNumber":"487-195-4328"},
  {"id":718,"Name":"Daisi","StreetAddress":"5665 Vahlen Trail","Zip":41300,"EmailAddress":"debbottsjx@msn.com","PhoneNumber":"256-354-2853"},
  {"id":719,"Name":"Harmony","StreetAddress":"194 Kenwood Junction","Zip":36506,"EmailAddress":"hseallyjy@blogger.com","PhoneNumber":"815-703-9116"},
  {"id":720,"Name":"Dolf","StreetAddress":"563 Merry Place","Zip":26898,"EmailAddress":"dthurstonjz@seesaa.net","PhoneNumber":"899-647-1370"},
  {"id":721,"Name":"Curran","StreetAddress":"73 Roth Center","Zip":45374,"EmailAddress":"charmank0@odnoklassniki.ru","PhoneNumber":"102-549-3949"},
  {"id":722,"Name":"Abbie","StreetAddress":"401 Corry Hill","Zip":38659,"EmailAddress":"acourtesk1@paypal.com","PhoneNumber":"611-690-9998"},
  {"id":723,"Name":"Travis","StreetAddress":"0268 Doe Crossing Trail","Zip":22276,"EmailAddress":"trontreek2@timesonline.co.uk","PhoneNumber":"570-889-0930"},
  {"id":724,"Name":"Sterling","StreetAddress":"76138 Kinsman Alley","Zip":14551,"EmailAddress":"sbordesk3@jugem.jp","PhoneNumber":"427-346-4621"},
  {"id":725,"Name":"Merilee","StreetAddress":"6 Old Shore Pass","Zip":13036,"EmailAddress":"mcastillok4@youtube.com","PhoneNumber":"832-124-5741"},
  {"id":726,"Name":"Georas","StreetAddress":"6 Fairview Road","Zip":24445,"EmailAddress":"gburburyk5@ebay.com","PhoneNumber":"893-342-7446"},
  {"id":727,"Name":"Walker","StreetAddress":"73971 Straubel Street","Zip":37132,"EmailAddress":"wrymellk6@github.io","PhoneNumber":"748-303-5299"},
  {"id":728,"Name":"Garry","StreetAddress":"56 Sauthoff Plaza","Zip":35728,"EmailAddress":"gknewstubbk7@sphinn.com","PhoneNumber":"880-891-0236"},
  {"id":729,"Name":"Averil","StreetAddress":"3966 Scoville Junction","Zip":24585,"EmailAddress":"apaynesk8@mit.edu","PhoneNumber":"825-910-7466"},
  {"id":730,"Name":"Krystle","StreetAddress":"94937 Texas Road","Zip":37320,"EmailAddress":"kmonkleighk9@so-net.ne.jp","PhoneNumber":"827-690-0079"},
  {"id":731,"Name":"Horace","StreetAddress":"432 Roth Circle","Zip":29068,"EmailAddress":"htimothyka@opensource.org","PhoneNumber":"614-960-1522"},
  {"id":732,"Name":"Hadleigh","StreetAddress":"78 Lindbergh Circle","Zip":41693,"EmailAddress":"harsnellkb@jalbum.net","PhoneNumber":"313-807-2554"},
  {"id":733,"Name":"Tammy","StreetAddress":"580 Springview Parkway","Zip":17868,"EmailAddress":"tfeldmannkc@theguardian.com","PhoneNumber":"173-891-1115"},
  {"id":734,"Name":"Reuben","StreetAddress":"81 Mallard Center","Zip":11396,"EmailAddress":"rbreakspearkd@imageshack.us","PhoneNumber":"366-348-0853"},
  {"id":735,"Name":"Riki","StreetAddress":"71772 Ohio Circle","Zip":22644,"EmailAddress":"rglackinke@tripadvisor.com","PhoneNumber":"308-136-0920"},
  {"id":736,"Name":"Keven","StreetAddress":"24 4th Parkway","Zip":22990,"EmailAddress":"kbroukf@delicious.com","PhoneNumber":"275-320-2925"},
  {"id":737,"Name":"Orton","StreetAddress":"04 Valley Edge Way","Zip":23297,"EmailAddress":"ocastellanikg@booking.com","PhoneNumber":"546-150-3337"},
  {"id":738,"Name":"Robbi","StreetAddress":"19944 Tony Drive","Zip":44589,"EmailAddress":"rluscottkh@hibu.com","PhoneNumber":"935-797-7939"},
  {"id":739,"Name":"Darci","StreetAddress":"18437 Northview Pass","Zip":44747,"EmailAddress":"dshaddickki@ibm.com","PhoneNumber":"933-387-8275"},
  {"id":740,"Name":"Davy","StreetAddress":"6 Morningstar Terrace","Zip":43765,"EmailAddress":"dsantinokj@devhub.com","PhoneNumber":"786-150-4526"},
  {"id":741,"Name":"Oberon","StreetAddress":"676 Village Green Court","Zip":26876,"EmailAddress":"oebleinkk@wiley.com","PhoneNumber":"168-104-6081"},
  {"id":742,"Name":"York","StreetAddress":"740 Twin Pines Way","Zip":12561,"EmailAddress":"ydemangelkl@desdev.cn","PhoneNumber":"844-971-9852"},
  {"id":743,"Name":"Fredi","StreetAddress":"9 Pleasure Trail","Zip":39457,"EmailAddress":"fbaldonikm@boston.com","PhoneNumber":"728-381-8404"},
  {"id":744,"Name":"Bunnie","StreetAddress":"8425 Bunker Hill Way","Zip":22520,"EmailAddress":"bstorahkn@sina.com.cn","PhoneNumber":"532-584-4502"},
  {"id":745,"Name":"Chariot","StreetAddress":"5 Carberry Lane","Zip":22917,"EmailAddress":"cghelardoniko@blinklist.com","PhoneNumber":"498-363-9167"},
  {"id":746,"Name":"Danit","StreetAddress":"08796 Lakewood Way","Zip":43959,"EmailAddress":"dnoakeskp@bloglines.com","PhoneNumber":"709-913-0630"},
  {"id":747,"Name":"Katee","StreetAddress":"8665 Basil Lane","Zip":37814,"EmailAddress":"kblanchetkq@elpais.com","PhoneNumber":"197-183-3222"},
  {"id":748,"Name":"Fulton","StreetAddress":"1 Iowa Alley","Zip":31122,"EmailAddress":"fmckinstrykr@pen.io","PhoneNumber":"286-979-2603"},
  {"id":749,"Name":"Becky","StreetAddress":"2406 Manitowish Court","Zip":37377,"EmailAddress":"bmoineks@jugem.jp","PhoneNumber":"768-625-9782"},
  {"id":750,"Name":"Clarita","StreetAddress":"49017 7th Street","Zip":14431,"EmailAddress":"cforsbeykt@123-reg.co.uk","PhoneNumber":"822-946-7101"},
  {"id":751,"Name":"Lurline","StreetAddress":"8 Clemons Terrace","Zip":33144,"EmailAddress":"lwoodheadku@google.ru","PhoneNumber":"221-946-0244"},
  {"id":752,"Name":"Correna","StreetAddress":"175 Hovde Crossing","Zip":44251,"EmailAddress":"cbemrosekv@utexas.edu","PhoneNumber":"691-936-6452"},
  {"id":753,"Name":"Robbie","StreetAddress":"915 Buena Vista Center","Zip":45859,"EmailAddress":"rfearnleykw@gov.uk","PhoneNumber":"544-224-6656"},
  {"id":754,"Name":"Rozalin","StreetAddress":"9012 Prentice Way","Zip":45649,"EmailAddress":"rgeardkx@washingtonpost.com","PhoneNumber":"788-322-9540"},
  {"id":755,"Name":"Wendel","StreetAddress":"394 Vermont Center","Zip":17334,"EmailAddress":"wfibbenky@unc.edu","PhoneNumber":"890-341-4001"},
  {"id":756,"Name":"Ola","StreetAddress":"824 Lukken Crossing","Zip":24088,"EmailAddress":"oizakoffkz@storify.com","PhoneNumber":"385-374-4088"},
  {"id":757,"Name":"Elora","StreetAddress":"60589 Clarendon Trail","Zip":48646,"EmailAddress":"egeistmannl0@dyndns.org","PhoneNumber":"349-186-6922"},
  {"id":758,"Name":"Filippo","StreetAddress":"9268 Memorial Drive","Zip":33116,"EmailAddress":"fperelll1@1und1.de","PhoneNumber":"274-936-7026"},
  {"id":759,"Name":"Edouard","StreetAddress":"3 Oriole Way","Zip":18613,"EmailAddress":"eboolsenl2@bloglines.com","PhoneNumber":"916-585-4593"},
  {"id":760,"Name":"Forrester","StreetAddress":"297 Morrow Center","Zip":18501,"EmailAddress":"fjocklel3@wikipedia.org","PhoneNumber":"348-628-4297"},
  {"id":761,"Name":"Bonnee","StreetAddress":"00352 Hallows Avenue","Zip":33005,"EmailAddress":"blipsonl4@prnewswire.com","PhoneNumber":"734-240-1873"},
  {"id":762,"Name":"Scottie","StreetAddress":"710 Ohio Plaza","Zip":46061,"EmailAddress":"smargriel5@wisc.edu","PhoneNumber":"379-818-7230"},
  {"id":763,"Name":"Courtney","StreetAddress":"3 Ramsey Terrace","Zip":17172,"EmailAddress":"cdaringtonl6@mozilla.org","PhoneNumber":"314-971-2028"},
  {"id":764,"Name":"Jorge","StreetAddress":"990 Graedel Circle","Zip":45446,"EmailAddress":"jonionl7@mozilla.org","PhoneNumber":"404-853-2018"},
  {"id":765,"Name":"Eolanda","StreetAddress":"429 Carey Crossing","Zip":25895,"EmailAddress":"efulleylovel8@w3.org","PhoneNumber":"828-257-4394"},
  {"id":766,"Name":"Loralee","StreetAddress":"6 Kenwood Center","Zip":14283,"EmailAddress":"lcannelll9@acquirethisname.com","PhoneNumber":"401-865-1172"},
  {"id":767,"Name":"Julie","StreetAddress":"6580 Little Fleur Place","Zip":31236,"EmailAddress":"jsnalumla@psu.edu","PhoneNumber":"221-882-4998"},
  {"id":768,"Name":"Chane","StreetAddress":"51 Meadow Ridge Parkway","Zip":20686,"EmailAddress":"cgetchlb@google.ru","PhoneNumber":"597-205-1806"},
  {"id":769,"Name":"Camala","StreetAddress":"2711 Eagle Crest Place","Zip":48046,"EmailAddress":"cgoadlc@last.fm","PhoneNumber":"906-967-7180"},
  {"id":770,"Name":"Zebedee","StreetAddress":"3672 Crowley Pass","Zip":27990,"EmailAddress":"zpoterld@nydailynews.com","PhoneNumber":"293-574-0930"},
  {"id":771,"Name":"Lyndy","StreetAddress":"463 Dakota Terrace","Zip":19392,"EmailAddress":"lblindmannle@squidoo.com","PhoneNumber":"135-355-1290"},
  {"id":772,"Name":"Aleda","StreetAddress":"038 Saint Paul Avenue","Zip":35587,"EmailAddress":"agiraudeaulf@last.fm","PhoneNumber":"843-744-0927"},
  {"id":773,"Name":"Nye","StreetAddress":"16 Luster Avenue","Zip":41386,"EmailAddress":"nwestphalenlg@guardian.co.uk","PhoneNumber":"660-879-0608"},
  {"id":774,"Name":"Brandais","StreetAddress":"88844 Carioca Terrace","Zip":18667,"EmailAddress":"bzukiermanlh@pen.io","PhoneNumber":"806-556-1594"},
  {"id":775,"Name":"Dollie","StreetAddress":"15087 Rusk Plaza","Zip":23785,"EmailAddress":"dgeorgeauli@google.ru","PhoneNumber":"778-641-7524"},
  {"id":776,"Name":"Buckie","StreetAddress":"87240 Jana Hill","Zip":39699,"EmailAddress":"bsparshattlj@uol.com.br","PhoneNumber":"518-681-0740"},
  {"id":777,"Name":"Zorah","StreetAddress":"45 Jackson Drive","Zip":12456,"EmailAddress":"zblowfieldlk@ameblo.jp","PhoneNumber":"114-995-1941"},
  {"id":778,"Name":"Kirsteni","StreetAddress":"15 Cottonwood Hill","Zip":19371,"EmailAddress":"klinnanell@ted.com","PhoneNumber":"321-352-4764"},
  {"id":779,"Name":"Galvin","StreetAddress":"694 Towne Drive","Zip":24084,"EmailAddress":"gtownelm@lulu.com","PhoneNumber":"523-740-5280"},
  {"id":780,"Name":"Brok","StreetAddress":"42300 Buell Point","Zip":23141,"EmailAddress":"baylmerln@infoseek.co.jp","PhoneNumber":"144-953-0147"},
  {"id":781,"Name":"Lynea","StreetAddress":"74 Alpine Lane","Zip":24948,"EmailAddress":"lmaffeilo@columbia.edu","PhoneNumber":"326-834-9274"},
  {"id":782,"Name":"Tabbitha","StreetAddress":"609 Burning Wood Drive","Zip":37469,"EmailAddress":"tidienslp@hhs.gov","PhoneNumber":"406-803-1689"},
  {"id":783,"Name":"Lavina","StreetAddress":"05 Hayes Park","Zip":21198,"EmailAddress":"ldancylq@istockphoto.com","PhoneNumber":"894-346-1192"},
  {"id":784,"Name":"Laurena","StreetAddress":"5 Prentice Street","Zip":29797,"EmailAddress":"lsandyfirthlr@nifty.com","PhoneNumber":"813-717-0921"},
  {"id":785,"Name":"Ken","StreetAddress":"1 Northport Point","Zip":10219,"EmailAddress":"kmaldenls@hud.gov","PhoneNumber":"963-887-0137"},
  {"id":786,"Name":"Heriberto","StreetAddress":"358 Welch Point","Zip":44409,"EmailAddress":"hoehmlt@eepurl.com","PhoneNumber":"188-495-7007"},
  {"id":787,"Name":"Reilly","StreetAddress":"267 Stone Corner Plaza","Zip":26968,"EmailAddress":"rwaggattlu@foxnews.com","PhoneNumber":"486-112-7750"},
  {"id":788,"Name":"Benedicta","StreetAddress":"294 Clove Court","Zip":47780,"EmailAddress":"bbetterisslv@auda.org.au","PhoneNumber":"562-345-6231"},
  {"id":789,"Name":"Bob","StreetAddress":"5 Elmside Road","Zip":43983,"EmailAddress":"btwinboroughlw@ftc.gov","PhoneNumber":"708-590-8017"},
  {"id":790,"Name":"Jody","StreetAddress":"95 Golf Road","Zip":11100,"EmailAddress":"jbimroselx@prlog.org","PhoneNumber":"281-201-9438"},
  {"id":791,"Name":"Hammad","StreetAddress":"24 2nd Park","Zip":31618,"EmailAddress":"hreadiely@nationalgeographic.com","PhoneNumber":"347-753-5908"},
  {"id":792,"Name":"Maryjo","StreetAddress":"11837 Arizona Junction","Zip":16731,"EmailAddress":"mdaviddelz@apple.com","PhoneNumber":"410-542-2653"},
  {"id":793,"Name":"Brynne","StreetAddress":"74305 Monument Park","Zip":47301,"EmailAddress":"bstearsm0@techcrunch.com","PhoneNumber":"391-432-0675"},
  {"id":794,"Name":"Nelson","StreetAddress":"57 Maple Road","Zip":15408,"EmailAddress":"ncrippesm1@amazon.co.jp","PhoneNumber":"686-153-9067"},
  {"id":795,"Name":"Ossie","StreetAddress":"7120 Johnson Junction","Zip":31972,"EmailAddress":"obendlem2@yale.edu","PhoneNumber":"570-858-8546"},
  {"id":796,"Name":"Gregoor","StreetAddress":"18 Melody Alley","Zip":14645,"EmailAddress":"gworlockm3@state.tx.us","PhoneNumber":"932-647-5872"},
  {"id":797,"Name":"Bethanne","StreetAddress":"301 Starling Parkway","Zip":39029,"EmailAddress":"bcolegatem4@posterous.com","PhoneNumber":"598-470-5297"},
  {"id":798,"Name":"Veronique","StreetAddress":"188 Carpenter Point","Zip":19376,"EmailAddress":"vcordeaum5@google.de","PhoneNumber":"631-131-2569"},
  {"id":799,"Name":"Athena","StreetAddress":"43790 Blaine Parkway","Zip":49034,"EmailAddress":"aonoulanem6@scientificamerican.com","PhoneNumber":"570-603-3772"},
  {"id":800,"Name":"Hercules","StreetAddress":"16962 Bluestem Crossing","Zip":10537,"EmailAddress":"hwandtkem7@linkedin.com","PhoneNumber":"202-460-6750"},
  {"id":801,"Name":"Marlane","StreetAddress":"8970 Lakeland Center","Zip":21743,"EmailAddress":"macremanm8@seattletimes.com","PhoneNumber":"171-527-0125"},
  {"id":802,"Name":"Arabella","StreetAddress":"11 Manitowish Lane","Zip":32701,"EmailAddress":"adifriscom9@tuttocitta.it","PhoneNumber":"643-187-2915"},
  {"id":803,"Name":"Issi","StreetAddress":"1 Cordelia Circle","Zip":43177,"EmailAddress":"istearnma@forbes.com","PhoneNumber":"519-511-9285"},
  {"id":804,"Name":"Gallagher","StreetAddress":"41 Orin Street","Zip":29605,"EmailAddress":"gpordalmb@marriott.com","PhoneNumber":"591-993-5696"},
  {"id":805,"Name":"Fremont","StreetAddress":"0624 Arizona Center","Zip":11393,"EmailAddress":"fjothammc@unesco.org","PhoneNumber":"694-607-3956"},
  {"id":806,"Name":"Hortensia","StreetAddress":"9 Rieder Street","Zip":24435,"EmailAddress":"hbrounfieldmd@indiatimes.com","PhoneNumber":"818-429-5385"},
  {"id":807,"Name":"Eleni","StreetAddress":"0932 Fair Oaks Road","Zip":12158,"EmailAddress":"erobertetme@vkontakte.ru","PhoneNumber":"837-590-2463"},
  {"id":808,"Name":"Melamie","StreetAddress":"5 Lakewood Center","Zip":19559,"EmailAddress":"mboughenmf@netlog.com","PhoneNumber":"262-627-9770"},
  {"id":809,"Name":"Edie","StreetAddress":"63 Eagan Terrace","Zip":42288,"EmailAddress":"echorltonmg@army.mil","PhoneNumber":"928-591-9034"},
  {"id":810,"Name":"Ayn","StreetAddress":"7 Algoma Circle","Zip":17274,"EmailAddress":"abeedonmh@ezinearticles.com","PhoneNumber":"379-143-9570"},
  {"id":811,"Name":"Lauree","StreetAddress":"0356 Oriole Terrace","Zip":49619,"EmailAddress":"ltommeomi@godaddy.com","PhoneNumber":"302-204-0117"},
  {"id":812,"Name":"Guinna","StreetAddress":"5350 Tony Lane","Zip":22498,"EmailAddress":"gorfeurmj@gizmodo.com","PhoneNumber":"503-140-8364"},
  {"id":813,"Name":"Rhodie","StreetAddress":"0 Artisan Crossing","Zip":33821,"EmailAddress":"rlennonmk@topsy.com","PhoneNumber":"908-636-3531"},
  {"id":814,"Name":"Nye","StreetAddress":"80 Melrose Plaza","Zip":17062,"EmailAddress":"nprysml@wikia.com","PhoneNumber":"606-858-2296"},
  {"id":815,"Name":"Hamlin","StreetAddress":"152 Waywood Park","Zip":11496,"EmailAddress":"hhylandsmm@auda.org.au","PhoneNumber":"954-429-9059"},
  {"id":816,"Name":"Carley","StreetAddress":"04 Lakeland Drive","Zip":31036,"EmailAddress":"cilettmn@npr.org","PhoneNumber":"776-897-3502"},
  {"id":817,"Name":"Rabi","StreetAddress":"95 Hanover Parkway","Zip":21200,"EmailAddress":"rtiffinmo@ifeng.com","PhoneNumber":"899-786-3555"},
  {"id":818,"Name":"Robbi","StreetAddress":"9 Eagan Pass","Zip":35363,"EmailAddress":"rkretschmermp@cornell.edu","PhoneNumber":"545-840-5255"},
  {"id":819,"Name":"Doreen","StreetAddress":"09821 Randy Court","Zip":19497,"EmailAddress":"dfidelusmq@intel.com","PhoneNumber":"667-766-6508"},
  {"id":820,"Name":"Jeramey","StreetAddress":"9 Morningstar Lane","Zip":14135,"EmailAddress":"jdambrogiomr@wired.com","PhoneNumber":"570-477-3029"},
  {"id":821,"Name":"Scarlet","StreetAddress":"2530 Steensland Park","Zip":10511,"EmailAddress":"shanms@sphinn.com","PhoneNumber":"706-972-4685"},
  {"id":822,"Name":"Saudra","StreetAddress":"1856 Utah Park","Zip":14371,"EmailAddress":"sheissmt@cam.ac.uk","PhoneNumber":"425-681-7699"},
  {"id":823,"Name":"Catina","StreetAddress":"69333 Bluejay Terrace","Zip":44790,"EmailAddress":"cbrookesmu@ovh.net","PhoneNumber":"756-688-2220"},
  {"id":824,"Name":"Nealon","StreetAddress":"40421 Donald Crossing","Zip":18623,"EmailAddress":"nscholeymv@umich.edu","PhoneNumber":"861-477-2485"},
  {"id":825,"Name":"Thurstan","StreetAddress":"13558 Logan Point","Zip":12900,"EmailAddress":"tmassymw@networkadvertising.org","PhoneNumber":"848-220-4393"},
  {"id":826,"Name":"Marney","StreetAddress":"4 Dottie Crossing","Zip":49073,"EmailAddress":"mdrewcliftonmx@ameblo.jp","PhoneNumber":"434-286-6653"},
  {"id":827,"Name":"Waverly","StreetAddress":"96 Oxford Road","Zip":24766,"EmailAddress":"wgalliermy@disqus.com","PhoneNumber":"456-719-0170"},
  {"id":828,"Name":"Wilhelm","StreetAddress":"20653 Cascade Hill","Zip":14191,"EmailAddress":"wtungatemz@chicagotribune.com","PhoneNumber":"488-966-6632"},
  {"id":829,"Name":"Latia","StreetAddress":"5 Everett Terrace","Zip":19650,"EmailAddress":"lridgesn0@google.com","PhoneNumber":"569-283-0068"},
  {"id":830,"Name":"Fabian","StreetAddress":"3 Southridge Alley","Zip":18345,"EmailAddress":"fmeaseyn1@w3.org","PhoneNumber":"451-369-8768"},
  {"id":831,"Name":"Sherlocke","StreetAddress":"24 Graceland Parkway","Zip":40136,"EmailAddress":"sstientonn2@time.com","PhoneNumber":"500-160-3264"},
  {"id":832,"Name":"Nanette","StreetAddress":"89895 1st Trail","Zip":38311,"EmailAddress":"nkintzeln3@baidu.com","PhoneNumber":"778-143-6076"},
  {"id":833,"Name":"Linet","StreetAddress":"78026 Rigney Circle","Zip":39758,"EmailAddress":"ltrangmarn4@etsy.com","PhoneNumber":"446-339-6247"},
  {"id":834,"Name":"Julee","StreetAddress":"31913 Charing Cross Road","Zip":16773,"EmailAddress":"jjaggarn5@go.com","PhoneNumber":"905-268-0698"},
  {"id":835,"Name":"Emmerich","StreetAddress":"27 Tony Junction","Zip":22638,"EmailAddress":"eglasonn6@flickr.com","PhoneNumber":"837-445-7619"},
  {"id":836,"Name":"Frank","StreetAddress":"2815 Marquette Drive","Zip":20481,"EmailAddress":"fcrowthn7@networksolutions.com","PhoneNumber":"584-558-4013"},
  {"id":837,"Name":"Candace","StreetAddress":"69925 Farragut Crossing","Zip":16596,"EmailAddress":"csargintn8@t.co","PhoneNumber":"727-743-4113"},
  {"id":838,"Name":"Pauli","StreetAddress":"1 Johnson Point","Zip":22278,"EmailAddress":"pbabarn9@arizona.edu","PhoneNumber":"947-738-5441"},
  {"id":839,"Name":"Kerr","StreetAddress":"225 Walton Court","Zip":13996,"EmailAddress":"klynnna@independent.co.uk","PhoneNumber":"859-353-9192"},
  {"id":840,"Name":"Stafford","StreetAddress":"0 Del Sol Circle","Zip":26886,"EmailAddress":"ssparynb@phpbb.com","PhoneNumber":"676-461-2564"},
  {"id":841,"Name":"Gigi","StreetAddress":"5 Sugar Pass","Zip":23254,"EmailAddress":"garnoldnc@jalbum.net","PhoneNumber":"106-639-2746"},
  {"id":842,"Name":"Shelia","StreetAddress":"345 Banding Plaza","Zip":43343,"EmailAddress":"sgrunnellnd@yelp.com","PhoneNumber":"410-251-8967"},
  {"id":843,"Name":"Jeanette","StreetAddress":"604 Hanson Avenue","Zip":12967,"EmailAddress":"jstenningsne@w3.org","PhoneNumber":"347-432-7259"},
  {"id":844,"Name":"Kaile","StreetAddress":"42841 Cardinal Park","Zip":32069,"EmailAddress":"kgriffittsnf@wp.com","PhoneNumber":"327-481-4171"},
  {"id":845,"Name":"Fritz","StreetAddress":"8599 Gerald Parkway","Zip":39290,"EmailAddress":"fstollmanng@icio.us","PhoneNumber":"337-591-6956"},
  {"id":846,"Name":"Etty","StreetAddress":"1545 Village Way","Zip":25494,"EmailAddress":"erubenczyknh@illinois.edu","PhoneNumber":"456-644-0818"},
  {"id":847,"Name":"Domeniga","StreetAddress":"8797 Pankratz Pass","Zip":30927,"EmailAddress":"dwindsorni@businessinsider.com","PhoneNumber":"298-261-6837"},
  {"id":848,"Name":"Wye","StreetAddress":"8074 Southridge Way","Zip":39574,"EmailAddress":"wtraversnj@twitpic.com","PhoneNumber":"937-921-5971"},
  {"id":849,"Name":"Jermaine","StreetAddress":"30 Sherman Street","Zip":24833,"EmailAddress":"jbriamonk@utexas.edu","PhoneNumber":"151-186-7109"},
  {"id":850,"Name":"Venus","StreetAddress":"9642 Forest Run Court","Zip":13967,"EmailAddress":"vposennl@sogou.com","PhoneNumber":"398-538-0269"},
  {"id":851,"Name":"Lotti","StreetAddress":"327 Service Hill","Zip":34964,"EmailAddress":"ltedorenkonm@macromedia.com","PhoneNumber":"433-843-8918"},
  {"id":852,"Name":"Jammal","StreetAddress":"30644 Loomis Avenue","Zip":33984,"EmailAddress":"jparcallnn@gnu.org","PhoneNumber":"732-934-5193"},
  {"id":853,"Name":"Tanitansy","StreetAddress":"4639 Lien Court","Zip":14417,"EmailAddress":"tmulhallno@washington.edu","PhoneNumber":"535-385-0007"},
  {"id":854,"Name":"Kristan","StreetAddress":"8296 Monica Trail","Zip":21909,"EmailAddress":"kbiscombnp@gizmodo.com","PhoneNumber":"944-298-3345"},
  {"id":855,"Name":"Ulick","StreetAddress":"6 Almo Circle","Zip":32894,"EmailAddress":"upennellsnq@github.io","PhoneNumber":"628-166-0111"},
  {"id":856,"Name":"Lura","StreetAddress":"448 Lerdahl Parkway","Zip":28030,"EmailAddress":"lfeasleynr@addtoany.com","PhoneNumber":"326-212-9780"},
  {"id":857,"Name":"Puff","StreetAddress":"44838 Holy Cross Center","Zip":30956,"EmailAddress":"ponraetns@dailymail.co.uk","PhoneNumber":"661-679-9107"},
  {"id":858,"Name":"Anton","StreetAddress":"0847 Forest Drive","Zip":49111,"EmailAddress":"acraiknt@ox.ac.uk","PhoneNumber":"546-300-7064"},
  {"id":859,"Name":"Petunia","StreetAddress":"77609 Canary Junction","Zip":46111,"EmailAddress":"pschlagtmansnu@amazon.com","PhoneNumber":"850-513-7369"},
  {"id":860,"Name":"Jamie","StreetAddress":"7571 Eagle Crest Terrace","Zip":20591,"EmailAddress":"jletteressenv@ocn.ne.jp","PhoneNumber":"106-625-6616"},
  {"id":861,"Name":"Alameda","StreetAddress":"47498 Stone Corner Alley","Zip":12697,"EmailAddress":"amcteaguenw@arizona.edu","PhoneNumber":"516-543-1112"},
  {"id":862,"Name":"Gretta","StreetAddress":"8 Namekagon Hill","Zip":27045,"EmailAddress":"gmacilhargynx@abc.net.au","PhoneNumber":"598-266-9950"},
  {"id":863,"Name":"Merralee","StreetAddress":"31553 Blackbird Pass","Zip":41426,"EmailAddress":"marrundaleny@webmd.com","PhoneNumber":"498-972-6622"},
  {"id":864,"Name":"Janna","StreetAddress":"1 Warner Junction","Zip":21304,"EmailAddress":"jfilinkovnz@webmd.com","PhoneNumber":"734-892-9619"},
  {"id":865,"Name":"Karoly","StreetAddress":"96 3rd Place","Zip":23920,"EmailAddress":"kpannetto0@paypal.com","PhoneNumber":"460-198-6086"},
  {"id":866,"Name":"Perren","StreetAddress":"704 Buena Vista Pass","Zip":28066,"EmailAddress":"pmorleyo1@soup.io","PhoneNumber":"952-910-7743"},
  {"id":867,"Name":"Tasha","StreetAddress":"23602 Declaration Parkway","Zip":15987,"EmailAddress":"tjousto2@nymag.com","PhoneNumber":"739-385-0206"},
  {"id":868,"Name":"Georgianne","StreetAddress":"7662 Hintze Point","Zip":26926,"EmailAddress":"ghurwortho3@answers.com","PhoneNumber":"505-770-8669"},
  {"id":869,"Name":"Agosto","StreetAddress":"51 Union Pass","Zip":28643,"EmailAddress":"aprendergrasso4@eepurl.com","PhoneNumber":"404-739-3047"},
  {"id":870,"Name":"Zonda","StreetAddress":"503 Maple Wood Alley","Zip":17187,"EmailAddress":"zgeffeno5@webeden.co.uk","PhoneNumber":"904-753-6091"},
  {"id":871,"Name":"Abigail","StreetAddress":"588 Graceland Crossing","Zip":37951,"EmailAddress":"adennistouno6@naver.com","PhoneNumber":"253-509-2711"},
  {"id":872,"Name":"Mano","StreetAddress":"63406 Badeau Drive","Zip":27974,"EmailAddress":"mbushello7@admin.ch","PhoneNumber":"753-273-4607"},
  {"id":873,"Name":"Con","StreetAddress":"37 Starling Drive","Zip":30828,"EmailAddress":"cbrooseo8@wordpress.org","PhoneNumber":"374-473-3763"},
  {"id":874,"Name":"Nickey","StreetAddress":"82 Rutledge Alley","Zip":32339,"EmailAddress":"ntrembertho9@meetup.com","PhoneNumber":"685-194-2295"},
  {"id":875,"Name":"Ugo","StreetAddress":"55959 David Circle","Zip":11018,"EmailAddress":"ufelsteadoa@merriam-webster.com","PhoneNumber":"551-837-0779"},
  {"id":876,"Name":"Paulina","StreetAddress":"06 Russell Circle","Zip":36989,"EmailAddress":"palessandoneob@bravesites.com","PhoneNumber":"943-780-5736"},
  {"id":877,"Name":"Perle","StreetAddress":"37 Crownhardt Point","Zip":44213,"EmailAddress":"pwhimpennyoc@webeden.co.uk","PhoneNumber":"571-934-7301"},
  {"id":878,"Name":"Cathee","StreetAddress":"60062 Lake View Junction","Zip":13804,"EmailAddress":"ctoulsonod@yahoo.co.jp","PhoneNumber":"607-217-5637"},
  {"id":879,"Name":"Etienne","StreetAddress":"90 Huxley Drive","Zip":25029,"EmailAddress":"ehaggieoe@sbwire.com","PhoneNumber":"845-676-0890"},
  {"id":880,"Name":"Margi","StreetAddress":"6 Thierer Road","Zip":11859,"EmailAddress":"mkennewayof@rediff.com","PhoneNumber":"702-890-6917"},
  {"id":881,"Name":"Aldus","StreetAddress":"8 Florence Drive","Zip":30982,"EmailAddress":"apelzog@shinystat.com","PhoneNumber":"653-923-3131"},
  {"id":882,"Name":"Maryrose","StreetAddress":"73 Tomscot Street","Zip":11277,"EmailAddress":"mpetrichatoh@gov.uk","PhoneNumber":"177-930-8798"},
  {"id":883,"Name":"Elton","StreetAddress":"036 Clarendon Junction","Zip":24888,"EmailAddress":"edrezzeroi@moonfruit.com","PhoneNumber":"777-408-1126"},
  {"id":884,"Name":"Thaine","StreetAddress":"7 Prairie Rose Circle","Zip":41934,"EmailAddress":"tmeffinoj@paypal.com","PhoneNumber":"990-108-3182"},
  {"id":885,"Name":"Magnum","StreetAddress":"8337 Derek Parkway","Zip":30322,"EmailAddress":"mluskok@purevolume.com","PhoneNumber":"695-467-5937"},
  {"id":886,"Name":"Ham","StreetAddress":"56404 Westridge Pass","Zip":44537,"EmailAddress":"hnockol@whitehouse.gov","PhoneNumber":"193-451-1855"},
  {"id":887,"Name":"Carmelia","StreetAddress":"484 Anniversary Avenue","Zip":15518,"EmailAddress":"ccomleyom@ehow.com","PhoneNumber":"498-985-9530"},
  {"id":888,"Name":"Friedrick","StreetAddress":"4116 Donald Drive","Zip":36434,"EmailAddress":"fniessenon@cbc.ca","PhoneNumber":"321-212-3521"},
  {"id":889,"Name":"Lance","StreetAddress":"0587 Golden Leaf Crossing","Zip":16418,"EmailAddress":"lreubbensoo@google.com.br","PhoneNumber":"112-973-4000"},
  {"id":890,"Name":"Daffie","StreetAddress":"96091 Dennis Avenue","Zip":37836,"EmailAddress":"dlestrangeop@nhs.uk","PhoneNumber":"794-623-2444"},
  {"id":891,"Name":"Dominic","StreetAddress":"3739 Green Way","Zip":10781,"EmailAddress":"dyuryshevoq@i2i.jp","PhoneNumber":"678-597-7817"},
  {"id":892,"Name":"Wyn","StreetAddress":"764 Mayfield Drive","Zip":26956,"EmailAddress":"wsalvidgeor@imdb.com","PhoneNumber":"976-686-8204"},
  {"id":893,"Name":"Maurise","StreetAddress":"08737 Maywood Avenue","Zip":36111,"EmailAddress":"mklasingos@moonfruit.com","PhoneNumber":"514-497-1205"},
  {"id":894,"Name":"Starr","StreetAddress":"5793 Spaight Drive","Zip":22643,"EmailAddress":"scaygillot@japanpost.jp","PhoneNumber":"152-158-6570"},
  {"id":895,"Name":"Trula","StreetAddress":"4743 Carioca Crossing","Zip":47089,"EmailAddress":"tferrucciou@123-reg.co.uk","PhoneNumber":"165-777-1142"},
  {"id":896,"Name":"Cari","StreetAddress":"15 Knutson Lane","Zip":47921,"EmailAddress":"ctripetov@sina.com.cn","PhoneNumber":"437-450-3380"},
  {"id":897,"Name":"Nevil","StreetAddress":"27873 Kingsford Avenue","Zip":32330,"EmailAddress":"nsmeeow@constantcontact.com","PhoneNumber":"225-438-2760"},
  {"id":898,"Name":"Melitta","StreetAddress":"51 Manufacturers Plaza","Zip":13848,"EmailAddress":"mpavolilloox@wunderground.com","PhoneNumber":"355-383-3515"},
  {"id":899,"Name":"Garrard","StreetAddress":"2402 Katie Alley","Zip":20109,"EmailAddress":"gmunganeoy@nih.gov","PhoneNumber":"869-508-1299"},
  {"id":900,"Name":"Westbrooke","StreetAddress":"09426 Nelson Point","Zip":20237,"EmailAddress":"wroosonoz@newsvine.com","PhoneNumber":"574-578-3938"},
  {"id":901,"Name":"Booth","StreetAddress":"3842 Springview Avenue","Zip":12340,"EmailAddress":"bsouthernp0@amazon.co.uk","PhoneNumber":"612-869-7700"},
  {"id":902,"Name":"Kettie","StreetAddress":"12 Miller Trail","Zip":46800,"EmailAddress":"kfortunep1@ca.gov","PhoneNumber":"657-379-5053"},
  {"id":903,"Name":"Ingamar","StreetAddress":"4921 Fairfield Alley","Zip":36134,"EmailAddress":"iwortp2@pagesperso-orange.fr","PhoneNumber":"351-330-7428"},
  {"id":904,"Name":"Osgood","StreetAddress":"610 Portage Pass","Zip":30852,"EmailAddress":"ocottemp3@opensource.org","PhoneNumber":"621-780-1529"},
  {"id":905,"Name":"Alexis","StreetAddress":"6 Morning Circle","Zip":31327,"EmailAddress":"amcconnelp4@shutterfly.com","PhoneNumber":"850-683-7617"},
  {"id":906,"Name":"Kate","StreetAddress":"43628 Packers Alley","Zip":47852,"EmailAddress":"kcharityp5@gizmodo.com","PhoneNumber":"483-648-0099"},
  {"id":907,"Name":"Evangeline","StreetAddress":"66 Kensington Circle","Zip":46349,"EmailAddress":"egoodletp6@ucla.edu","PhoneNumber":"240-616-2443"},
  {"id":908,"Name":"Lillian","StreetAddress":"212 Prairie Rose Park","Zip":47366,"EmailAddress":"lwinbornp7@msu.edu","PhoneNumber":"995-682-5102"},
  {"id":909,"Name":"Ody","StreetAddress":"69 Transport Circle","Zip":48126,"EmailAddress":"orosendalep8@t-online.de","PhoneNumber":"562-195-7393"},
  {"id":910,"Name":"Ibbie","StreetAddress":"0708 Brentwood Crossing","Zip":45659,"EmailAddress":"iselkirkp9@eepurl.com","PhoneNumber":"729-759-9118"},
  {"id":911,"Name":"Blake","StreetAddress":"24 Mockingbird Junction","Zip":43958,"EmailAddress":"bcowwellpa@domainmarket.com","PhoneNumber":"544-197-7409"},
  {"id":912,"Name":"Petunia","StreetAddress":"0285 Corscot Circle","Zip":48714,"EmailAddress":"phicklingbottompb@opera.com","PhoneNumber":"226-738-3773"},
  {"id":913,"Name":"Marlo","StreetAddress":"352 Spenser Place","Zip":25185,"EmailAddress":"mspeakmanpc@comcast.net","PhoneNumber":"289-283-6144"},
  {"id":914,"Name":"Ade","StreetAddress":"6680 Blue Bill Park Alley","Zip":37895,"EmailAddress":"ahewsonpd@arstechnica.com","PhoneNumber":"303-251-9422"},
  {"id":915,"Name":"Mela","StreetAddress":"48668 Kropf Drive","Zip":25955,"EmailAddress":"mlimbrickpe@w3.org","PhoneNumber":"303-897-2928"},
  {"id":916,"Name":"Abramo","StreetAddress":"58184 Talisman Alley","Zip":46254,"EmailAddress":"agasparpf@foxnews.com","PhoneNumber":"824-380-8954"},
  {"id":917,"Name":"Calida","StreetAddress":"1 Lukken Crossing","Zip":21589,"EmailAddress":"cmaclucaispg@bluehost.com","PhoneNumber":"435-791-5419"},
  {"id":918,"Name":"Joell","StreetAddress":"30 Laurel Drive","Zip":40497,"EmailAddress":"jtodarelloph@patch.com","PhoneNumber":"692-480-3539"},
  {"id":919,"Name":"Flem","StreetAddress":"8038 Springview Trail","Zip":26577,"EmailAddress":"ftrimmingpi@weebly.com","PhoneNumber":"473-701-0589"},
  {"id":920,"Name":"Laure","StreetAddress":"7 Jenna Crossing","Zip":42297,"EmailAddress":"lhellwigpj@pagesperso-orange.fr","PhoneNumber":"851-795-8393"},
  {"id":921,"Name":"Elberta","StreetAddress":"7 Boyd Alley","Zip":22334,"EmailAddress":"eroothampk@businesswire.com","PhoneNumber":"218-611-9928"},
  {"id":922,"Name":"Joye","StreetAddress":"6876 Macpherson Court","Zip":41219,"EmailAddress":"jklaaassenpl@dion.ne.jp","PhoneNumber":"887-532-0996"},
  {"id":923,"Name":"Thorvald","StreetAddress":"6343 Carpenter Drive","Zip":40017,"EmailAddress":"twillingalepm@examiner.com","PhoneNumber":"776-777-0131"},
  {"id":924,"Name":"Nap","StreetAddress":"60 Cherokee Terrace","Zip":29593,"EmailAddress":"nolehanepn@sourceforge.net","PhoneNumber":"233-396-0466"},
  {"id":925,"Name":"Arda","StreetAddress":"69510 Vahlen Plaza","Zip":36530,"EmailAddress":"asamblespo@google.pl","PhoneNumber":"315-816-1282"},
  {"id":926,"Name":"Gigi","StreetAddress":"4339 Melvin Junction","Zip":25995,"EmailAddress":"gdobrowolnypp@live.com","PhoneNumber":"358-764-9232"},
  {"id":927,"Name":"Fletcher","StreetAddress":"18176 Karstens Street","Zip":19837,"EmailAddress":"fricciardellipq@naver.com","PhoneNumber":"963-818-6928"},
  {"id":928,"Name":"Taylor","StreetAddress":"05 Stone Corner Alley","Zip":11701,"EmailAddress":"trichtpr@free.fr","PhoneNumber":"958-479-7765"},
  {"id":929,"Name":"Quintina","StreetAddress":"55 Sunfield Hill","Zip":26321,"EmailAddress":"qveltenps@ca.gov","PhoneNumber":"679-689-6252"},
  {"id":930,"Name":"Heda","StreetAddress":"2 Walton Court","Zip":48151,"EmailAddress":"hcheelpt@163.com","PhoneNumber":"320-250-6881"},
  {"id":931,"Name":"Sydelle","StreetAddress":"10 Myrtle Lane","Zip":18576,"EmailAddress":"swhittingtonpu@webs.com","PhoneNumber":"372-438-5681"},
  {"id":932,"Name":"Marley","StreetAddress":"8249 2nd Pass","Zip":28940,"EmailAddress":"mpoorpv@bigcartel.com","PhoneNumber":"408-814-1078"},
  {"id":933,"Name":"Stu","StreetAddress":"7469 Shasta Circle","Zip":13597,"EmailAddress":"sleithgoepw@mozilla.com","PhoneNumber":"895-102-0173"},
  {"id":934,"Name":"Thor","StreetAddress":"387 Stuart Pass","Zip":45759,"EmailAddress":"ttanserpx@usda.gov","PhoneNumber":"363-312-5640"},
  {"id":935,"Name":"Cherise","StreetAddress":"19900 Chinook Point","Zip":25631,"EmailAddress":"ctocquepy@fc2.com","PhoneNumber":"790-758-5152"},
  {"id":936,"Name":"Bearnard","StreetAddress":"4 Merry Lane","Zip":38304,"EmailAddress":"bingersonpz@google.com","PhoneNumber":"731-794-1737"},
  {"id":937,"Name":"Rooney","StreetAddress":"32421 Shelley Circle","Zip":43424,"EmailAddress":"rayliffeq0@flavors.me","PhoneNumber":"508-762-4752"},
  {"id":938,"Name":"Irv","StreetAddress":"80759 Jackson Avenue","Zip":10496,"EmailAddress":"igreenroydq1@thetimes.co.uk","PhoneNumber":"309-186-0100"},
  {"id":939,"Name":"Jacklin","StreetAddress":"3 Marquette Place","Zip":28228,"EmailAddress":"jfogartyq2@furl.net","PhoneNumber":"435-474-7533"},
  {"id":940,"Name":"Karrah","StreetAddress":"306 Arkansas Drive","Zip":28123,"EmailAddress":"ksallingerq3@stumbleupon.com","PhoneNumber":"123-590-8348"},
  {"id":941,"Name":"Pace","StreetAddress":"90 Northridge Center","Zip":34822,"EmailAddress":"ploadsq4@mediafire.com","PhoneNumber":"636-972-8524"},
  {"id":942,"Name":"Zebedee","StreetAddress":"542 Lien Avenue","Zip":11286,"EmailAddress":"zfruddq5@chicagotribune.com","PhoneNumber":"763-435-4663"},
  {"id":943,"Name":"Bernadene","StreetAddress":"41 Knutson Center","Zip":47073,"EmailAddress":"blosseljongq6@utexas.edu","PhoneNumber":"490-395-1396"},
  {"id":944,"Name":"Enoch","StreetAddress":"48215 Mcbride Trail","Zip":15968,"EmailAddress":"edolligonq7@mashable.com","PhoneNumber":"432-365-7914"},
  {"id":945,"Name":"Adelheid","StreetAddress":"01 Dexter Drive","Zip":37476,"EmailAddress":"aarthurq8@squarespace.com","PhoneNumber":"580-379-8238"},
  {"id":946,"Name":"Lettie","StreetAddress":"6 Summit Junction","Zip":14823,"EmailAddress":"lmcvittieq9@icq.com","PhoneNumber":"627-522-8839"},
  {"id":947,"Name":"Sanson","StreetAddress":"666 Grayhawk Trail","Zip":14508,"EmailAddress":"ssyddieqa@live.com","PhoneNumber":"782-973-4203"},
  {"id":948,"Name":"Berk","StreetAddress":"47367 Eliot Parkway","Zip":15962,"EmailAddress":"bfrereqb@liveinternet.ru","PhoneNumber":"166-196-7815"},
  {"id":949,"Name":"Colan","StreetAddress":"02797 Corben Circle","Zip":36842,"EmailAddress":"cmilleryqc@facebook.com","PhoneNumber":"830-523-9225"},
  {"id":950,"Name":"Irving","StreetAddress":"596 Rieder Point","Zip":28261,"EmailAddress":"iparradiceqd@twitpic.com","PhoneNumber":"370-302-1389"},
  {"id":951,"Name":"Caressa","StreetAddress":"92 Nobel Center","Zip":45769,"EmailAddress":"cbrasonqe@nature.com","PhoneNumber":"401-469-9655"},
  {"id":952,"Name":"Agnesse","StreetAddress":"050 Gale Place","Zip":14419,"EmailAddress":"aastmanqf@sourceforge.net","PhoneNumber":"444-452-2359"},
  {"id":953,"Name":"Camilla","StreetAddress":"2196 Barby Lane","Zip":34200,"EmailAddress":"carnaudetqg@squarespace.com","PhoneNumber":"844-633-3952"},
  {"id":954,"Name":"Banky","StreetAddress":"9713 Walton Terrace","Zip":21973,"EmailAddress":"bpleyqh@jiathis.com","PhoneNumber":"524-808-2069"},
  {"id":955,"Name":"Lynn","StreetAddress":"154 Upham Center","Zip":42035,"EmailAddress":"lleipeltqi@cnet.com","PhoneNumber":"531-825-8139"},
  {"id":956,"Name":"Chantalle","StreetAddress":"505 Michigan Place","Zip":30912,"EmailAddress":"cdibbenqj@mit.edu","PhoneNumber":"912-595-5224"},
  {"id":957,"Name":"Inessa","StreetAddress":"84658 Hermina Trail","Zip":15429,"EmailAddress":"ibickerstethqk@gravatar.com","PhoneNumber":"587-723-5362"},
  {"id":958,"Name":"Olimpia","StreetAddress":"5856 Donald Point","Zip":43439,"EmailAddress":"okarelql@discovery.com","PhoneNumber":"326-690-7609"},
  {"id":959,"Name":"Grethel","StreetAddress":"8708 Hallows Center","Zip":26933,"EmailAddress":"grandalstonqm@sbwire.com","PhoneNumber":"194-912-7874"},
  {"id":960,"Name":"Moses","StreetAddress":"5 Dixon Drive","Zip":33616,"EmailAddress":"magatesqn@google.fr","PhoneNumber":"607-516-3733"},
  {"id":961,"Name":"Laurianne","StreetAddress":"058 Nobel Drive","Zip":19407,"EmailAddress":"lortetqo@senate.gov","PhoneNumber":"666-636-9414"},
  {"id":962,"Name":"Colet","StreetAddress":"1121 Farwell Point","Zip":31102,"EmailAddress":"caickinqp@themeforest.net","PhoneNumber":"765-564-9755"},
  {"id":963,"Name":"Ronda","StreetAddress":"8351 Almo Road","Zip":12586,"EmailAddress":"rnesterqq@time.com","PhoneNumber":"709-335-6190"},
  {"id":964,"Name":"Aridatha","StreetAddress":"93218 Aberg Terrace","Zip":49437,"EmailAddress":"arosenshineqr@senate.gov","PhoneNumber":"167-423-3099"},
  {"id":965,"Name":"Wendel","StreetAddress":"6673 Sunnyside Park","Zip":13980,"EmailAddress":"wbrithmanqs@blogtalkradio.com","PhoneNumber":"278-913-9350"},
  {"id":966,"Name":"Verina","StreetAddress":"1956 Warbler Center","Zip":22507,"EmailAddress":"vsketqt@xinhuanet.com","PhoneNumber":"971-519-4083"},
  {"id":967,"Name":"Ninette","StreetAddress":"686 Annamark Pass","Zip":13515,"EmailAddress":"nkenanqu@1688.com","PhoneNumber":"537-797-7550"},
  {"id":968,"Name":"Nelie","StreetAddress":"172 Pond Junction","Zip":32350,"EmailAddress":"ngrimsdykeqv@hostgator.com","PhoneNumber":"666-181-8523"},
  {"id":969,"Name":"Lexis","StreetAddress":"05178 Gina Terrace","Zip":11458,"EmailAddress":"llaurantqw@tmall.com","PhoneNumber":"763-352-6790"},
  {"id":970,"Name":"Ileana","StreetAddress":"71134 Basil Place","Zip":40423,"EmailAddress":"icurrmqx@intel.com","PhoneNumber":"547-449-6817"},
  {"id":971,"Name":"Ulrika","StreetAddress":"7 Di Loreto Place","Zip":23438,"EmailAddress":"ucrummayqy@bandcamp.com","PhoneNumber":"221-636-1461"},
  {"id":972,"Name":"Milton","StreetAddress":"6 Kenwood Alley","Zip":42001,"EmailAddress":"mmacgowqz@ucla.edu","PhoneNumber":"972-227-5066"},
  {"id":973,"Name":"Jolyn","StreetAddress":"8 Pearson Hill","Zip":40373,"EmailAddress":"jgudginr0@netvibes.com","PhoneNumber":"305-734-8003"},
  {"id":974,"Name":"Augustus","StreetAddress":"02 Hintze Terrace","Zip":23982,"EmailAddress":"anewbiggingr1@sourceforge.net","PhoneNumber":"852-767-5574"},
  {"id":975,"Name":"Juieta","StreetAddress":"457 Buell Junction","Zip":43370,"EmailAddress":"jreadingr2@wired.com","PhoneNumber":"591-126-4668"},
  {"id":976,"Name":"Chrisse","StreetAddress":"0 Hovde Way","Zip":37478,"EmailAddress":"ccazinr3@furl.net","PhoneNumber":"585-279-6156"},
  {"id":977,"Name":"Thomasina","StreetAddress":"8934 Welch Court","Zip":38460,"EmailAddress":"tcirlosr4@stumbleupon.com","PhoneNumber":"490-370-7305"},
  {"id":978,"Name":"Phillipp","StreetAddress":"85 Pearson Pass","Zip":14843,"EmailAddress":"pneubiginr5@kickstarter.com","PhoneNumber":"540-413-1249"},
  {"id":979,"Name":"Melisandra","StreetAddress":"968 Linden Trail","Zip":27549,"EmailAddress":"mgasperir6@imgur.com","PhoneNumber":"267-864-1363"},
  {"id":980,"Name":"Oralla","StreetAddress":"28539 Superior Street","Zip":40520,"EmailAddress":"onapthiner7@japanpost.jp","PhoneNumber":"320-463-4138"},
  {"id":981,"Name":"Shurwood","StreetAddress":"7 Mccormick Parkway","Zip":22328,"EmailAddress":"sgaitleyr8@soup.io","PhoneNumber":"376-653-9118"},
  {"id":982,"Name":"Alic","StreetAddress":"8 Columbus Street","Zip":14451,"EmailAddress":"aliddonr9@businessinsider.com","PhoneNumber":"376-912-5044"},
  {"id":983,"Name":"Delano","StreetAddress":"424 Marcy Park","Zip":33466,"EmailAddress":"dalishonerra@comsenz.com","PhoneNumber":"911-406-8471"},
  {"id":984,"Name":"Olga","StreetAddress":"9337 Rusk Point","Zip":42502,"EmailAddress":"ogayrb@opera.com","PhoneNumber":"492-925-8354"},
  {"id":985,"Name":"Donovan","StreetAddress":"13665 Banding Crossing","Zip":46610,"EmailAddress":"dcejkarc@sourceforge.net","PhoneNumber":"731-935-1128"},
  {"id":986,"Name":"Lyell","StreetAddress":"41 Spaight Avenue","Zip":10197,"EmailAddress":"lskittrallrd@vistaprint.com","PhoneNumber":"469-276-7972"},
  {"id":987,"Name":"Melina","StreetAddress":"02534 Cordelia Street","Zip":44203,"EmailAddress":"mcordeletre@google.cn","PhoneNumber":"825-154-1466"},
  {"id":988,"Name":"Kilian","StreetAddress":"850 Cottonwood Road","Zip":29139,"EmailAddress":"kbrindedrf@princeton.edu","PhoneNumber":"772-873-7006"},
  {"id":989,"Name":"La verne","StreetAddress":"9115 Memorial Place","Zip":28408,"EmailAddress":"lventrisrg@bandcamp.com","PhoneNumber":"536-142-0946"},
  {"id":990,"Name":"Lurlene","StreetAddress":"22371 Golden Leaf Point","Zip":29054,"EmailAddress":"lbavagerh@discuz.net","PhoneNumber":"414-664-1852"},
  {"id":991,"Name":"Gretchen","StreetAddress":"36509 Grover Terrace","Zip":24914,"EmailAddress":"gyglesiasri@infoseek.co.jp","PhoneNumber":"736-458-1605"},
  {"id":992,"Name":"Yolane","StreetAddress":"3 Butterfield Lane","Zip":20885,"EmailAddress":"ymoulerj@studiopress.com","PhoneNumber":"739-237-9015"},
  {"id":993,"Name":"Engelbert","StreetAddress":"379 Scofield Park","Zip":11309,"EmailAddress":"ebattramrk@paypal.com","PhoneNumber":"847-543-6067"},
  {"id":994,"Name":"Tracey","StreetAddress":"92932 Cottonwood Street","Zip":28895,"EmailAddress":"tattkinsrl@merriam-webster.com","PhoneNumber":"716-652-2675"},
  {"id":995,"Name":"Sorcha","StreetAddress":"17900 Independence Court","Zip":20473,"EmailAddress":"ssearlesrm@nhs.uk","PhoneNumber":"757-250-2180"},
  {"id":996,"Name":"Desirae","StreetAddress":"60 Weeping Birch Point","Zip":15423,"EmailAddress":"dleekern@tamu.edu","PhoneNumber":"942-789-1504"},
  {"id":997,"Name":"Hayes","StreetAddress":"3 Clarendon Pass","Zip":40017,"EmailAddress":"hhawlerro@patch.com","PhoneNumber":"116-168-7493"},
  {"id":998,"Name":"Merilyn","StreetAddress":"330 Gale Road","Zip":32083,"EmailAddress":"mtinseyrp@wufoo.com","PhoneNumber":"207-140-6656"},
  {"id":999,"Name":"Vina","StreetAddress":"3297 Sullivan Parkway","Zip":36742,"EmailAddress":"vmurrellrq@google.co.uk","PhoneNumber":"910-866-6879"},
  {"id":1000,"Name":"Wilmar","StreetAddress":"462 Myrtle Terrace","Zip":17575,"EmailAddress":"waylottrr@soundcloud.com","PhoneNumber":"374-841-7250"}
]